TempleName,LordGod,Area,Address,lat,long
成德堂,釋迦牟尼佛,雲林縣,雲林縣麥寮鄉光大寮麥豐村5鄰41號,23.7448437,120.2567145
閭山宮,,雲林縣,雲林縣麥寮鄉中山麥津村路200巷80號,23.7516853,120.2544965
聖奉宮,天上聖母,雲林縣,雲林縣麥寮鄉施厝村二三九之一六號,23.7955071,120.2800582
聚寶宮,五府千歲,雲林縣,雲林縣麥寮鄉施厝村11鄰176號,23.7951385,120.2828888
護安府,康蘇池府千歲,雲林縣,雲林縣麥寮鄉興華村八鄰山寮26-60號,23.753414,120.291022
福德祠,土地公,雲林縣,雲林縣麥寮鄉中興路麥津村150號,23.7541618,120.2520885
泰安宮,蕭府太傅,雲林縣,雲林縣麥寮鄉橋頭村9鄰247號,23.795503,120.272106
吉安宮,李府千歲,雲林縣,雲林縣麥寮鄉新吉村七鄰六九號,23.816605,120.280072
順天宮,媽祖,雲林縣,雲林縣麥寮鄉雷厝村6鄰62號,23.806373,120.2894283
安南祠,三法大將軍,雲林縣,雲林縣麥寮鄉橋頭村一鄰三號,23.7969911,120.2235872
安聖宮,雷府千歲,雲林縣,雲林縣麥寮鄉忠和路海豐村五九號,23.7749249,120.2236615
玉安宮,張聖真君,雲林縣,雲林縣麥寮鄉興華村一六鄰五0號,23.749564,120.293834
北玄宮,北極玄天上帝,雲林縣,雲林縣麥寮鄉沙崙後崙後村六鄰一四一號,23.7729897,120.2679534
福興宮,李府千歲,雲林縣,雲林縣麥寮鄉後安村二鄰四九號,23.78926,120.238417
開元宮,朱伍府千歲,雲林縣,雲林縣麥寮鄉沙崙後崙後村43號,23.7727222,120.2659651
麥寮拱範宮,媽祖,雲林縣,雲林縣麥寮鄉中正路麥豐村三號,23.748227,120.2555798
鎮西宮,蕭府千歲,雲林縣,雲林縣麥寮鄉中正路麥津村一九四號,23.74979,120.251687
崙背福德宮,福德正神,雲林縣,雲林縣崙背鄉中山路福德巷西榮村,23.7678745,120.3464333
玄天宮,玄天上帝,雲林縣,雲林縣麥寮鄉新吉村五鄰五六號,23.816605,120.280072
北嶽殿,地藏王,雲林縣,雲林縣麥寮鄉忠和海豐村一鄰路二四之七號,23.7649174,120.2252459
王興宮,觀音菩薩,雲林縣,雲林縣褒忠鄉潮厝村9鄰王厝6之1號,23.7196744,120.3383222
帝君廟,關聖帝君,雲林縣,雲林縣大埤鄉吉田村六鄰田子林六四號,23.657782,120.418223
玄武宮,中壇元帥,雲林縣,雲林縣大埤鄉中埤三結村三八號,23.6653675,120.4430706
龍海宮,天上聖母,雲林縣,雲林縣東勢鄉信義路龍潭村1之13號,23.6897299,120.2394633
鎮南宮,玄天上帝,雲林縣,雲林縣麥寮鄉新興路麥豐村二二鄰二七之六號,23.7446339,120.2505063
鎮盛宮,媽祖,雲林縣,雲林縣麥寮鄉橋頭村二鄰五一號,23.7906333,120.2717519
福安宮,,雲林縣,雲林縣麥寮鄉三盛村8鄰43號,23.7974919,120.265021
聖母宮,天上聖母,雲林縣,雲林縣東勢鄉媽埔月眉村19鄰20號,23.679653,120.298979
同安宮,七省大元帥,雲林縣,雲林縣東勢鄉同安路同安村東安段一四七四號,23.7122594,120.2669534
正興宮,中壇元帥,雲林縣,雲林縣西螺鎮公正路正興里一五七號,23.7988749,120.4619017
萬善堂,關基廟主,雲林縣,雲林縣東勢鄉東勢西路東南村48號,23.6760194,120.252197
水汴頭崇賢寺,觀音佛祖,雲林縣,雲林縣崙背鄉嘉南港尾村一三鄰路二三之二一號,23.7667064,120.3757348
明聖堂,釋迦牟尼佛,雲林縣,雲林縣西螺鎮公館里12鄰三源247號,23.758065,120.461292
廣興宮,三山國王,雲林縣,雲林縣西螺鎮源成東路正興里一五號,23.7993701,120.4611772
觀音禪寺,阿彌陀佛,雲林縣,雲林縣斗六市虎溪路虎溪里四－七巷二號,23.7208043,120.5226056
缽子寺,觀音佛祖,雲林縣,雲林縣西螺鎮安南下湳里三鄰三九號,23.7621324,120.4334603
慈惠寺,南無觀世音菩薩,雲林縣,雲林縣崙背鄉港尾村四鄰四八號,23.7484792,120.3752854
鹽園順天宮,關聖帝君,雲林縣,雲林縣崙背鄉阿勸村六鄰鹽園七六號,23.764543,120.337016
五塊厝巡浩宮,三府千歲,雲林縣,雲林縣崙背鄉五常五魁村130號,23.759534,120.308449
慈雲宮,觀世音菩薩,雲林縣,雲林縣麥寮鄉橋頭村六鄰一0九號,23.7948851,120.278079
竹林寺,南海佛祖,雲林縣,雲林縣麥寮鄉新興路麥豐村1號,23.7458408,120.2515823
拱興宮,天上聖母,雲林縣,雲林縣西螺鎮詔安里四鄰二六之三號,23.804387,120.446012
崙前慈化宮,彌勒祖師,雲林縣,雲林縣崙背鄉崙前村路一四二之一號,23.7531049,120.350425
玉安宮,北極玄天上帝,雲林縣,雲林縣斗六市龍潭路龍潭里五一號,23.690844,120.526817
斗六順天宮,三山國王,雲林縣,雲林縣斗六市中山路社口里一七一巷六號,23.7052814,120.5394429
善覺精舍,觀世音菩薩,雲林縣,雲林縣斗六市鎮北路鎮北里三八五之七號,23.7152621,120.5429704
福安宮,五府千歲,雲林縣,雲林縣麥寮鄉興化興華村厝三九號,23.7715169,120.2927089
慈德宮,玄天上帝,雲林縣,雲林縣斗六市榮譽路林頭里三0之一號,23.704658,120.556695
龍聖宮,關聖帝君,雲林縣,雲林縣斗六市深圳路久安里一四鄰九號,23.6823449,120.5198646
慈天宮,觀世音菩薩,雲林縣,雲林縣斗六市溪底路梅林里九鄰五之一號,23.6967342,120.6109236
保玄宮,玄天上帝,雲林縣,雲林縣斗六市保庄里建興路152-1號,23.700125,120.52509
濟化宮,明明上帝,雲林縣,雲林縣斗六市崙?里崙北路七之一二號,23.6816258,120.5402993
順安宮,蔭林慚愧祖師,雲林縣,雲林縣斗六市文生路虎溪里六鄰二六號,23.7183109,120.5239281
斗六南聖宮,關聖帝君,雲林縣,雲林縣斗六市南聖路林頭里三0一號,23.6914458,120.5587194
梅林里福德宮,福德正神,雲林縣,雲林縣斗六市梅林路梅林里15鄰四三九號,23.70307,120.5903767
月興宮,丁府八千歲,雲林縣,雲林縣東勢鄉守仁街月眉村6之6號,23.6855129,120.288288
慈惠堂,無極瑤池金母,雲林縣,雲林縣西螺鎮漢光里光復西路三七八號,23.796426,120.4539783
信義佛堂,明明上帝,雲林縣,雲林縣西螺鎮光復東路大園里五一巷一號,23.7978915,120.4666685
社口水德堂,萬善公,雲林縣,雲林縣西螺鎮社口福田里段一二六八號,23.7815712,120.4255846
崇德宮,金府千歲,雲林縣,雲林縣東勢鄉守密街嘉隆村37號,23.6659352,120.2613547
濟安宮,七仙姑,雲林縣,雲林縣斗六市竹頭重光里路一一號,23.6932135,120.5666599
程氏家廟,佛公福德正神關聖帝君,雲林縣,雲林縣西螺鎮埔心段六二九號,23.7783445,120.4223831
朝興宮,天上聖母,雲林縣,雲林縣西螺鎮吳厝里六鄰六0號,23.800928,120.4616842
明善堂,釋迦牟尼佛,雲林縣,雲林縣西螺鎮中興里福來路389號,23.8005108,120.4498054
振興宮,阿善師,雲林縣,雲林縣西螺鎮廣興里八鄰七0號,23.7653958,120.463126
慈興宮,地藏王菩薩,雲林縣,雲林縣西螺鎮新社段一五二0之一號,23.789182,120.448883
保安宮,神農大帝,雲林縣,雲林縣東勢鄉同安路東安段631地號,23.7116473,120.2668753
慶興宮,福德正神,雲林縣,雲林縣東勢鄉同安路同安村90之2號,23.7041993,120.265256
興德堂,觀音佛祖,雲林縣,雲林縣東勢鄉同北路同安村24鄰26號,23.7318966,120.2706002
張天師府,正一天師,雲林縣,雲林縣崙背鄉中厝阿勸村一鄰二三之一號,23.7498691,120.3325653
永安宮,玄天上帝,雲林縣,雲林縣崙背鄉大有村165號,23.75899,120.3071689
榴中福德宮,福德正神,雲林縣,雲林縣斗六市北環路榴中里九之六號,23.7249655,120.5812492
明照堂,觀音佛祖,雲林縣,雲林縣西螺鎮吳厝里一鄰一五號,23.800928,120.4616842
明修堂,玉皇大天尊無極瑤池金母,雲林縣,雲林縣崙背鄉和平路西榮村一0鄰一四號,23.762285,120.3513541
新興宮,天上聖母,雲林縣,雲林縣斗六市四維里中正路二鄰六0號,23.708733,120.5444632
福興宮,李府千歲,雲林縣,雲林縣麥寮鄉霄仁厝瓦嗂村47-17號,23.753945,120.268724
觀音堂,觀音菩薩,雲林縣,雲林縣東勢鄉同安路同安村85之1號,23.7111386,120.2668104
公業福德爺廟,福德正神,雲林縣,雲林縣西螺鎮鹿場三塊厝段小段一一一0地號,23.7499001,120.4729605
草湖拱后宮,天上聖母,雲林縣,雲林縣崙背鄉草湖村三鄰五0之一號,23.7978369,120.332034
聖元宮,天上聖母,雲林縣,雲林縣崙背鄉新豐大有村路三號,23.7637768,120.3087158
崇修堂,明明上帝,雲林縣,雲林縣斗六市中山路社口里一四九巷二0號,23.705578,120.539594
紫雲堂,觀音佛祖,雲林縣,雲林縣斗六市重光路重光里二一二之一號,23.6932511,120.5666139
石榴班萬善宮,萬善爺,雲林縣,雲林縣斗六市中興路榴北里一九0號,23.7299888,120.5695997
開安宮,李府千歲,雲林縣,雲林縣東勢鄉同安路同安村55號,23.7087311,120.2665
晉安府,吳府三王,雲林縣,雲林縣東勢鄉安南路安南村106之9號,23.7041883,120.2498009
財團法人西螺福善寺,地藏王菩薩,雲林縣,雲林縣西螺鎮大橋路中和里五號,23.8039999,120.4622188
弓孝宮,伏魔大帝,雲林縣,雲林縣西螺鎮九隆里四鄰五一號,23.7496931,120.437152
天聖宮,天羅至尊,雲林縣,雲林縣斗六市明德里河堤南路二段二0一之五0號,23.7265695,120.5420512
文殊寺,釋迦牟尼佛,雲林縣,雲林縣斗六市石寮榴北里路九之一號,23.7365228,120.5915425
明聖宮,玄天上帝,雲林縣,雲林縣斗六市重光路重光里二鄰四三號,23.6932633,120.5662135
新社百姓堂,地藏王,雲林縣,雲林縣西螺鎮新豐里二二九號,23.784636,120.450028
港尾順天宮,關聖帝君,雲林縣,雲林縣崙背鄉港尾村三鄰三0號,23.7484519,120.3774177
妙智學苑,觀世音菩薩,雲林縣,雲林縣斗六市文生路虎溪里五一七巷一五號,23.7181345,120.5246758
嘉東北天宮,天上聖母,雲林縣,雲林縣斗六市嘉東中路嘉東里二一號,23.6858751,120.545323
回春寺,明明上帝,雲林縣,雲林縣斗六市檨林路湖山里八三號,23.6944336,120.6247349
財團法人斗六市湖山寺,南無觀世音菩薩,雲林縣,雲林縣斗六市岩山路湖山里十一鄰四八號,23.707734,120.6077965
福德寺,福德正神,雲林縣,雲林縣斗六市光明路溝壩里一00號,23.673783,120.5374832
保安宮,地藏王菩薩,雲林縣,雲林縣斗六市萬年路斗路六市溪洲里九七三號,23.7409854,120.5549604
靖安寺,地藏王菩薩,雲林縣,雲林縣斗六市鎮南路社口里一四鄰一六一號,23.7007555,120.5415524
埔心百姓公廟,地藏王,雲林縣,雲林縣西螺鎮安定里六八號,23.8023398,120.4397903
廣玄宮,玄天上帝,雲林縣,雲林縣西螺鎮大新里一五鄰一六三之一號,23.7943604,120.4962417
三殿宮,紫衣菩薩,雲林縣,雲林縣斗六市永興路久安里一六鄰四四號,23.6871689,120.517347
供天宮,北極玄天上帝,雲林縣,雲林縣斗六市竹圍路溪洲里九鄰七二之三0號,23.7417889,120.5580539
天后宮,天上聖母,雲林縣,雲林縣莿桐鄉油車埔尾村72號,23.7434207,120.5248399
大乾宮,玄天上帝,雲林縣,雲林縣斗六市鎮北里鎮北路二三四號,23.7171156,120.5427387
復天宮,天上聖母,雲林縣,雲林縣斗六市湖山路湖山里四鄰八五之一號,23.707905,120.59986
福興山,玄天上帝,雲林縣,雲林縣斗六市楓湖路湖山里九鄰九二號,23.716487,120.606736
成功廟,開台尊王,雲林縣,雲林縣大埤鄉豐田村二鄰一二號,23.65841,120.4598844
安西宮,李伍府千歲,雲林縣,雲林縣麥寮鄉崙後村二六一號,23.7758821,120.2648706
玉鳳宮,玄天上帝,雲林縣,雲林縣斗六市洛陽路三平里七六號,23.709186,120.5352442
善德堂,觀世音菩薩,雲林縣,雲林縣東勢鄉安南路安南村6鄰51之1號,23.7016827,120.2524383
福德爺廟,福德正神,雲林縣,雲林縣西螺鎮頂湳段一0四九之一號,23.7783445,120.4223831
振文書院,五文昌帝君,雲林縣,雲林縣西螺鎮興農西路廣福里六號,23.7944934,120.4644841
太元寺,觀音佛祖,雲林縣,雲林縣西螺鎮仁和街中和里三七號,23.8011433,120.463223
順天宮,媽祖天上聖母,雲林縣,雲林縣水林鄉蕃薯厝102號,23.5417857,120.2235597
代天宮,李府千歲,雲林縣,雲林縣水林鄉順興路45號,23.5567262,120.207332
保安宮,保生大帝,雲林縣,雲林縣古坑鄉高林村63號,23.673579,120.570216
開山道院,無極老母,雲林縣,雲林縣古坑鄉尖山坑東和村41號之1,23.6521481,120.6065771
普明寺,觀世音菩薩,雲林縣,雲林縣古坑鄉荷苞村荷苞路76號之6,23.6474419,120.6056064
善修宮,關聖帝君,雲林縣,雲林縣斗六市鎮東里永樂街一鄰一號,23.7118232,120.5480855
引善寺,釋迦佛,雲林縣,雲林縣斗六市引善路八德里一七0號,23.712394,120.567459
保生宮,保生大帝,雲林縣,雲林縣古坑鄉光昌路永昌村246巷1號,23.6272235,120.5492976
新庄開山宮,開山聖侯,雲林縣,雲林縣崙背鄉枋南村七鄰新庄六四號,23.786901,120.362964
阿勸順安宮,池張李府千歲,雲林縣,雲林縣崙背鄉阿勸村一七鄰一二號,23.764543,120.337016
朝龍宮,玄天上帝,雲林縣,雲林縣斗六市久安路久安里三一一號,23.6865286,120.5097442
大年宮,玄天上帝,雲林縣,雲林縣斗六市仁義路崙?里四四號,23.6790401,120.538455
玄安宮,玄天上帝,雲林縣,雲林縣斗六市瓦厝路江厝里一五鄰一00號,23.670443,120.520215
天聖宮,天上聖母,雲林縣,雲林縣斗六市長平北路長平里一七號,23.7032568,120.5037021
南仁寺,觀音佛祖,雲林縣,雲林縣斗六市南仁路榴南里一九二號,23.7123855,120.5876827
石榴班金上宮,天上聖母,雲林縣,雲林縣斗六市石榴路榴中里一七鄰一0四之二0號,23.727557,120.589512
承天宮,劉府仙公,雲林縣,雲林縣斗六市埤頭路梅林里二一號,23.7024649,120.5786658
聖按宮,李府千歲,雲林縣,雲林縣虎尾鎮安溪里一六六之二三號,23.7275268,120.4400839
新福興宮,天上聖母,雲林縣,雲林縣二崙鄉義庄村新庄二九號,23.8177718,120.4198491
德聖堂,關聖帝君,雲林縣,雲林縣大埤鄉豐田村大埤路五九巷五八號,23.661721,120.4724392
松山廟,松山元帥,雲林縣,雲林縣大埤鄉聯美路聯美村一八之二號,23.6522202,120.3983445
大眾廟,大將爺公,雲林縣,雲林縣麥寮鄉中山路麥豐村九鄰大眾巷三號,23.7487913,120.2575355
順天府,李府千歲,雲林縣,雲林縣水林鄉大山10之9號,23.6085038,120.5445808
天保宮,天上聖母,雲林縣,雲林縣水林鄉蔦松路204號,23.4378915,120.4526414
保安宮,保生大帝,雲林縣,雲林縣古坑鄉崁腳村36號之2,23.6085038,120.5445808
三聖宮,關聖帝君,雲林縣,雲林縣莿桐鄉興北興貴村路六三之一0號,23.7734638,120.5209226
法輪寺,釋迦佛,雲林縣,雲林縣水林鄉廟前路101號,23.5748651,120.240608
慈光寺,釋迦牟尼佛,雲林縣,雲林縣古坑鄉永光村大湖口1號之1,23.6119316,120.5698189
天聖宮,關聖帝君,雲林縣,雲林縣林內鄉聖宮路湖本村一五號,23.7263845,120.6212609
玄德宮,玄天上帝,雲林縣,雲林縣林內鄉林中村榮譽路二0號,23.7051764,120.5517683
財團法人雲林縣林內鄉濟公堂,濟公禪師,雲林縣,雲林縣林內鄉公園林中村中山1號,23.753702,120.6155125
上德宮,福德正神,雲林縣,雲林縣大埤鄉豐興嘉興村,23.644265,120.464959
合天宮,徐府千歲,雲林縣,雲林縣口湖鄉湖口村91號,23.5296449,120.1560436
鎮天宮,五年千歲,雲林縣,雲林縣口湖鄉埔北村19之1號,23.61879,120.180925
明聖宮,魁星大帝,雲林縣,雲林縣臺西鄉溪頂村165-3號,23.6852151,120.1884985
過港六房天上聖母廟,六房天上聖母,雲林縣,雲林縣土庫鎮成功路越港里三號,23.6739978,120.3943109
德興宮,池府千歲,雲林縣,雲林縣虎尾鎮中正路中山里172號,23.7078608,120.4328172
慈德堂,觀世音菩薩,雲林縣,雲林縣北港鎮光明路162號,23.5668735,120.2999935
泰德堂,玄天上帝,雲林縣,雲林縣大埤鄉埤頭三結村三一三號,23.662337,120.435328
恩德宮,關聖帝君,雲林縣,雲林縣莿桐鄉興貴村興中34號,23.7681543,120.5286802
天竺寺,觀音佛祖,雲林縣,雲林縣莿桐鄉甘厝村二一五號,23.7595685,120.4874208
保延宮,保生大帝,雲林縣,雲林縣大埤鄉聯美路聯美村,23.6522202,120.3983445
鎮福宮,保生大帝,雲林縣,雲林縣大埤鄉鎮平北鎮村一0號,23.6357888,120.3918803
廣興宮,池府千歲,雲林縣,雲林縣莿桐鄉饒平路饒平村一三0號,23.7798129,120.5189342
順德府,張府千歲,雲林縣,雲林縣元長鄉山川合和村六鄰路一四之一號,23.6288771,120.3320195
南清宮,天上聖母、夫人七姊妹,雲林縣,雲林縣臺西鄉溝南永豐村2號,23.7205426,120.2112768
章寶宮,天上聖母,雲林縣,雲林縣四湖鄉內湖村下桂山4號,23.6286065,120.1870367
天雲寺,觀音佛祖,雲林縣,雲林縣四湖鄉中洋南路羊調村一0號,23.642265,120.199578
文英宮,關聖帝君,雲林縣,雲林縣大埤鄉尚義村七二號,23.637872,120.449655
福興宮,趙府元帥,雲林縣,雲林縣褒忠鄉有才村1鄰7之5號,23.720846,120.290534
陌姓祠,陌姓公陌姓婆,雲林縣,雲林縣莿桐鄉后埔四合村九六之一號,23.777328,120.5289
真武宮,玄天上帝,雲林縣,雲林縣大埤鄉豐興嘉興村十二號,23.6429892,120.4637739
福華宮,康府元帥,雲林縣,雲林縣古坑鄉華山村34號之1,23.594459,120.597985
財團法人北港朝天宮,,雲林縣,雲林縣北港鎮中山路178號,23.5678056,120.3046446
濟公禪寺,濟公活佛,雲林縣,雲林縣虎尾鎮德興里北平路六四號,23.712061,120.429125
金羅殿,中元普渡公,雲林縣,雲林縣虎尾鎮民族路東仁里122號,23.711981,120.438054
大天宮,無極聖祖,雲林縣,雲林縣虎尾鎮安溪里7鄰119之1號,23.722176,120.4426766
鳳山寺,廣澤尊王,雲林縣,雲林縣土庫鎮中正路宮北里二二五號,23.6783196,120.3920634
三善公廟,三善公,雲林縣,雲林縣水林鄉萬興1之20號,23.5839902,120.2329169
福興宮,池府千歲,雲林縣,雲林縣水林鄉春埔1鄰62號,23.444791,120.244964
保生大帝廟,保生大帝,雲林縣,雲林縣大埤鄉後庄北鎮村52號,23.6783196,120.3920634
慈玲宮,方仙姑,雲林縣,雲林縣崙背鄉大有村13鄰284之18號,23.7637768,120.3087158
舊庄拱后宮,天上聖母,雲林縣,雲林縣崙背鄉舊庄村十鄰九九號,23.7851416,120.3286564
受天宮,天上聖母,雲林縣,雲林縣斗六市莊敬路成功里五五號,23.7035447,120.5502501
斗六福興宮,開漳聖王,雲林縣,雲林縣斗六市鎮西里雲林路二段一八0號,23.699157,120.526328
順安宮,地藏王菩薩,雲林縣,雲林縣林內鄉重興村二0鄰進興路一七號,23.7752481,120.588484
清雲萬聖堂,清雲萬聖爺,雲林縣,雲林縣土庫鎮大荖里七0之二號,23.6876,120.373712
虎尾安溪慧日講堂,釋迦牟尼佛,雲林縣,雲林縣虎尾鎮安溪里104-8號,23.7275268,120.4400839
奉祈宮,媽祖,雲林縣,雲林縣土庫鎮新庄里10鄰311之1號,23.7401425,120.3740858
三姓公廟,三姓公,雲林縣,雲林縣虎尾鎮埒內里10鄰156之3號,23.7347204,120.4501653
協天宮,關聖帝君,雲林縣,雲林縣二崙鄉三塊厝三和村六0號,23.7367367,120.4017194
儀天宮,天上聖母,雲林縣,雲林縣二崙鄉楊賢路楊賢村五0號,23.815886,120.40375
墾地里萬善堂,萬人爺公,雲林縣,雲林縣虎尾鎮墾地里一0鄰六十甲區45之25號,23.7367367,120.4017194
奉三宮,三山國王,雲林縣,雲林縣北港鎮好收里52號,23.600952,120.278206
侯天府,鄭府聖侯,雲林縣,雲林縣北港鎮西湖草湖里一00之一號,23.597662,120.301338
玉相宮,玄天上帝,雲林縣,雲林縣古坑鄉田心村91號,23.6683891,120.5430028
九蓮華山聖道院,關聖帝君,雲林縣,雲林縣古坑鄉華山村116號,23.5950618,120.5966968
三泰宮,三官大帝,雲林縣,雲林縣古坑鄉新庄村43號,23.6902019,120.5855579
天浩宮,地母至尊,雲林縣,雲林縣古坑鄉文化路東和村2號之8,23.6815635,120.5715274
福吉宮,玄天上帝,雲林縣,雲林縣莿桐鄉永基四合村一五號,23.776118,120.525696
長和宮,天上聖母,雲林縣,雲林縣斗六市長和路榴中里15號,23.7243179,120.5767638
萬年宮,玄天上帝,雲林縣,雲林縣斗六市萬年路四一六巷四九號,23.7266866,120.5508493
東興,樟仙師,雲林縣,雲林縣莿桐鄉新莊六合村東興段一六五號,23.7595685,120.4874208
順天宮,天上聖母媽祖,雲林縣,雲林縣二崙鄉華北路大華村三之一六號,23.8004801,120.4175048
城同府,城隍廟公,雲林縣,雲林縣四湖鄉中湖街施湖村一之一號,23.634091,120.220753
惠興宮,天上聖母,雲林縣,雲林縣二崙鄉惠來路來惠村一五鄰45之1號,23.768729,120.400413
通天府,溫王千歲,雲林縣,雲林縣水林鄉廟前路86號,23.5746081,120.2414717
天后宮,天上聖母,雲林縣,雲林縣水林鄉蔦松路172之1號,23.5148512,120.2285935
南昌宮,保生大帝,雲林縣,雲林縣古坑鄉南昌崁腳村45號,23.6115143,120.5377581
玉龍宮,太子中壇元帥,雲林縣,雲林縣古坑鄉水碓村168號,23.664533,120.559809
清參宮,天上聖母,雲林縣,雲林縣古坑鄉文化路東和村201號,23.6878149,120.5652699
鎮安府,,雲林縣,雲林縣臺西鄉蚊港村130號,23.7554544,120.2214751
美山寺,觀音佛祖,雲林縣,雲林縣元長鄉二房合和村九鄰路五六之三號,23.6591402,120.2997824
福德宮,福德正神,雲林縣,雲林縣林內鄉中西路林中村四五號,23.7600161,120.6119362
玄興宮,玄天上帝包府千歲關聖帝君,雲林縣,雲林縣斗南鎮復興路石溪里65號,23.6342571,120.474416
小西天廟,觀世音菩薩,雲林縣,雲林縣斗南鎮新庄東明里二二號,23.6873415,120.4944128
順安宮,天上聖母,雲林縣,雲林縣斗南鎮長安路１段明昌里126號,23.675388,120.4737336
南安宮,三帥夫人,雲林縣,雲林縣口湖鄉蚶寮路116之1號,23.7600161,120.6119362
開元宮,鄭成功,雲林縣,雲林縣口湖鄉後厝村110號,23.6342571,120.474416
薛安宮,薛府千歲,雲林縣,雲林縣臺西鄉三和富琦村15鄰18-6號,23.675388,120.4737336
馨香宮,朱府千歲,雲林縣,雲林縣口湖鄉埔南村126號,23.4399219,120.5998528
豐德宮,李府千歲,雲林縣,雲林縣水林鄉海豐12之1號,23.6317491,120.2552352
福德廟,福德正神公公,雲林縣,雲林縣古坑鄉永光村崁頭厝段,23.6317911,120.5493044
虛空聖殿,中壇元帥,雲林縣,雲林縣古坑鄉光興路永昌村85號,23.6255146,120.5496787
水碓濟公堂,,雲林縣,雲林縣古坑鄉水碓村35號,23.625068,120.5514846
福安宮,天上聖母,雲林縣,雲林縣四湖鄉下鹿場路55號,23.6151536,120.2375786
明德寺,觀世音菩薩,雲林縣,雲林縣臺西鄉忠孝路和豐村99號,23.728642,120.2132148
拱雲宮,趙府元歲,雲林縣,雲林縣虎尾鎮埒內里一七四號,23.7223975,120.4468906
虎尾慈惠堂,無極瑤池金母,雲林縣,雲林縣虎尾鎮頂溪里下過溪11鄰75之1號,23.7281745,120.4636611
三合里福德宮,福德正神,雲林縣,雲林縣虎尾鎮三合里舊部二七號,23.697903,120.405768
鎮興宮,關聖帝君,雲林縣,雲林縣虎尾鎮五間厝西安里28之3號,23.6987527,120.4284548
碧清寺,觀世音菩薩,雲林縣,雲林縣水林鄉宏仁路38號,23.6052503,120.2393195
保安公廟,有應公,雲林縣,雲林縣臺西鄉三姓蚊港村寮,23.751393,120.223994
觀音佛祖廟,觀音佛祖,雲林縣,雲林縣斗南鎮溝心新崙里一三號,23.6724019,120.4314393
順安堂,清水祖師,雲林縣,雲林縣斗南鎮明昌里一八六號,23.6744525,120.4683778
漢陽慈聖宮,瑤池金母,雲林縣,雲林縣林內鄉大埔九芎村一一之五號,23.733184,120.596077
德天宮,開台聖王,雲林縣,雲林縣莿桐鄉榮貫麻園村路一六五號,23.7718958,120.5299821
泰安宮,蘇府千歲,雲林縣,雲林縣褒忠鄉馬鳴村泰安5之1號,23.6922361,120.292541
濟善堂,南海古佛,雲林縣,雲林縣大埤鄉和平路北和村一六之一號,23.6433991,120.4275719
芳林宮,天上聖母,雲林縣,雲林縣斗南鎮林子里23之1號,23.6841575,120.4938291
福德宮,福德正神,雲林縣,雲林縣斗南鎮文安新光里段974地號,23.6917548,120.4802612
泰安府,張李莫馬池府千歲,雲林縣,雲林縣元長鄉中洽鹿南村二鄰路二八號之三,23.6417682,120.3719866
青風天壇,九天玄女,雲林縣,雲林縣元長鄉子茂村六鄰八一號,23.664356,120.3291365
五福宮,天師大帝,雲林縣,雲林縣北港鎮扶朝里192-1號,23.56006,120.284061
北港武德宮,天官武財神,雲林縣,雲林縣北港鎮華勝路新街里三三0號,23.5893948,120.3009303
乾元宮,三山國王,雲林縣,雲林縣北港鎮大庄樹腳里二號,23.577139,120.275832
奉天府,五府千歲,雲林縣,雲林縣水林鄉後寮50號,23.5514402,120.2368366
嘉興宮,池府王爺,雲林縣,雲林縣古坑鄉中山路朝陽村182巷2號,23.6463444,120.561781
永安宮,北極玄天上帝,雲林縣,雲林縣林內鄉永安烏麻村三鄰六九之一號,23.7508733,120.5843685
震威府,金府千歲,雲林縣,雲林縣北港鎮灣內後溝里路21號,23.5752855,120.2943706
里山宮,張天師,雲林縣,雲林縣莿桐鄉農校莿桐村路三之一五號,23.7497774,120.5076429
法雲庵感德堂,關聖帝君,雲林縣,雲林縣莿桐鄉興北興貴村路一一六號,23.7734638,120.5209226
通天府,吳府千歲,雲林縣,雲林縣口湖鄉後厝村8號,23.5427462,120.1971782
進雄宮,玄天上帝,雲林縣,雲林縣林內鄉烏塗村八鄰四八之六號,23.5427462,120.1971782
鉅天宮,池府千歲,雲林縣,雲林縣土庫鎮後埔里七八號,23.4609107,120.249941
萬善堂,萬善公,雲林縣,雲林縣林內鄉新光路林北村五一號,23.768532,120.631576
感善堂,關聖帝君,雲林縣,雲林縣元長鄉三民子茂村路三八號,23.670193,120.3304854
鎮平宮,五年千歲,雲林縣,雲林縣元長鄉下寮村一鄰埔墘路五號,23.6203265,120.3225028
包千宮,包府千歲,雲林縣,雲林縣元長鄉溪底後湖村八鄰,23.690113,120.314418
包青府,包府千歲,雲林縣,雲林縣元長鄉元北路長北村三四之一號,23.6535467,120.3145313
聖奉宮,蘇府千歲,雲林縣,雲林縣元長鄉南火五塊村路四之六號,23.6546971,120.2792143
萬善公祠,萬善公,雲林縣,雲林縣林內鄉大同路九芎村二二鄰一五之一號,23.7402187,120.6017579
福興宮,福德正神,雲林縣,雲林縣虎尾鎮林森路一段103巷21號,23.7115231,120.434948
帥興宮,中壇元帥,雲林縣,雲林縣虎尾鎮清雲路興中里280號,23.72514,120.434533
后儀宮,天上聖母,雲林縣,雲林縣二崙鄉永定路永定村7鄰353號,23.7967279,120.4165865
大眾祠,百姓公,雲林縣,雲林縣斗南鎮小東段877號,23.6900625,120.4800826
興國宮,觀世音菩薩,雲林縣,雲林縣斗南鎮興國路舊社里四0號,23.668315,120.480067
富安宮,五府千歲,雲林縣,雲林縣四湖鄉民權路溪底村一號,23.65447,120.270424
安平宮,天上聖母,雲林縣,雲林縣二崙鄉安平路港後村三三號,23.8041926,120.394448
福德爺宮,福德正神,雲林縣,雲林縣虎尾鎮下南延平里一四之六號,23.6834514,120.408001
天聖府,聖仁保生大帝,雲林縣,雲林縣土庫鎮後埔里雙人厝二三號,23.697566,120.370792
龍台宮,玄天上帝,雲林縣,雲林縣口湖鄉三民路1之1號,23.5753306,120.1477994
護安宮,觀世音菩薩,雲林縣,雲林縣斗南鎮林子里國宅一0九號,23.65138,120.484399
慈海宮,觀音佛祖,雲林縣,雲林縣臺西鄉海口村399巷35-1號,23.7001112,120.1898139
順安宮,,雲林縣,雲林縣臺西鄉山寮村11鄰下81號,23.6997812,120.2096133
和天宮,天上聖母,雲林縣,雲林縣四湖鄉廣溝村九七號,23.6400868,120.1546598
海天府,池府千歲,雲林縣,雲林縣臺西鄉民族路海南村12-6號,23.6973714,120.1975086
聖母宮,六房天上聖母,雲林縣,雲林縣虎尾鎮頂溪里路87之2號,23.7387495,120.460963
妙宗寺,西天佛祖,雲林縣,雲林縣虎尾鎮民族路60號,23.711937,120.439585
代安宮,朱府千歲,雲林縣,雲林縣土庫鎮西平里山仔腳,23.669483,120.3492594
崇德寺,,雲林縣,雲林縣虎尾鎮三合里大松腳棋杆厝,23.6910993,120.4040725
建順宮,張吳二位媽祖,雲林縣,雲林縣斗南鎮建國一路二七六號,23.6827298,120.473564
照天宮,池府千歲,雲林縣,雲林縣斗南鎮南勢新南里三五－一號,23.644108,120.502079
普賢寺,釋迦牟尼佛,雲林縣,雲林縣斗南鎮西伯里路一五七之二八號,23.683727,120.434933
崁頭厝振興宮,玄天上帝,雲林縣,雲林縣古坑鄉光昌路永昌村158號,23.6266182,120.5519942
吉祥宮,南無觀世音菩薩,雲林縣,雲林縣古坑鄉桂林村71號之8,23.613065,120.606642
建台宮,開台尊王,雲林縣,雲林縣二崙鄉太平路港後村九鄰九一之一二號,23.8146184,120.3863294
彌陀精舍,釋迦牟尼佛,雲林縣,雲林縣二崙鄉興義路大義村7號,23.7832466,120.4000847
慈聖宮天德堂,無極五母,雲林縣,雲林縣莿桐鄉埤寮麻園村一五號,23.758212,120.538861
仁和宮,謝府元帥,雲林縣,雲林縣莿桐鄉新庄六合村四四號,23.769095,120.55701
順天宮,蘇府千歲,雲林縣,雲林縣褒忠鄉中民村大部45之1號,23.7026061,120.3210801
太興宮,,雲林縣,雲林縣斗南鎮田頭里田頭156號,23.7028516,120.4882518
保安宮,保生大帝,雲林縣,雲林縣斗南鎮成功東明里路三七之一號,23.6740069,120.5035079
鎮海宮,,雲林縣,雲林縣臺西鄉中山路海口村4鄰299巷34之16號,23.6986998,120.203147
美山佛寺,觀世音菩薩,雲林縣,雲林縣四湖鄉美山街湖西村160號,23.6354938,120.2248501
寒林寺,地藏王菩薩,雲林縣,雲林縣斗南鎮中正路北銘里1號,23.678128,120.4803893
聖平宮,天上聖母,雲林縣,雲林縣北港鎮後溝里四鄰路七四號,23.5860785,120.3240748
聖修宮,關聖帝君,雲林縣,雲林縣口湖鄉台興路280之1號,23.5615367,120.1422404
保安宮,關聖帝君,雲林縣,雲林縣四湖鄉保長湖湖西村120號,23.644417,120.226892
侯興宮,,雲林縣,雲林縣臺西鄉溪頂村尚德段1222號,23.6820668,120.190171
興安代天府,五府千歲,雲林縣,雲林縣口湖鄉民生路79巷28號,23.6158225,120.1670249
太子宮,陶兵太子,雲林縣,雲林縣口湖鄉文昌路27號,23.583257,120.1855042
調天府,李府千歲,雲林縣,雲林縣口湖鄉復興路144號,23.5484662,120.1902068
興安宮,林李莫府千歲,雲林縣,雲林縣臺西鄉萬興和豐村路19號,23.7243262,120.2123558
萬安宮,萬教帝君,雲林縣,雲林縣臺西鄉信義路和豐村70號,23.7241789,120.2115837
玉旨靖雲宮,陳靖姑娘娘,雲林縣,雲林縣大埤鄉大埤路嘉興村一鄰三九七號,23.648469,120.438669
廣濟寺,觀音佛祖,雲林縣,雲林縣褒忠鄉太湖路埔姜村13鄰43號,23.7047979,120.3086317
七星宮,七娘媽,雲林縣,雲林縣水林鄉後埔21號,23.5514402,120.2368366
都玄天宮,玄天上帝,雲林縣,雲林縣水林鄉海埔67之1號,23.5624238,120.2541774
大屯子福德宮,福德正神,雲林縣,雲林縣虎尾鎮西屯里一0鄰333之9號,23.704642,120.38337
少林宮,蔡府元帥,雲林縣,雲林縣土庫鎮崙內里二六之一號,23.688905,120.349746
振興宮,瑤池金母,雲林縣,雲林縣土庫鎮秀潭奮起里一六六號,23.6567751,120.3495773
湳子萬善堂,萬善爺,雲林縣,雲林縣虎尾鎮下南延平里五鄰一四之二二號側,23.6822003,120.4065613
正義公廟,正義公,雲林縣,雲林縣水林鄉蕃東40號,23.5432089,120.2270757
開復廟,延平郡王,雲林縣,雲林縣林內鄉成功路林南村四八號,23.7559543,120.6154572
鎮安宮,神農大帝,雲林縣,雲林縣林內鄉中央路九芎村一六0號,23.743374,120.60491
龍德寺,觀音大士,雲林縣,雲林縣林內鄉永昌烏麻村一六0號,23.7553385,120.5926517
萬善祠,地藏王菩薩萬善爺,雲林縣,雲林縣口湖鄉台子村126號,23.5458636,120.1523226
德化堂,關聖帝君,雲林縣,雲林縣斗南鎮中山路南昌里七六巷一五號,23.6736527,120.4801795
長源宮,隨駕王爺玄天上帝,雲林縣,雲林縣林內鄉烏塗村長源路三之七號,23.7540298,120.594223
震天宮,北極玄天上帝,雲林縣,雲林縣西螺鎮鹿場里83-1號,23.7499256,120.4755408
啟興宮,池王爺,雲林縣,雲林縣西螺鎮建興路福興里三三六號,23.8029432,120.4592219
天衡宮,玉皇大天尊無極瑤池金母,雲林縣,雲林縣崙背鄉民權路東明村八號,23.761983,120.357456
華陽府,丁府八千歲,雲林縣,雲林縣臺西鄉光華村路100-1號,23.695486,120.210085
玄武宮,玄天上帝,雲林縣,雲林縣古坑鄉麻園村中洲36號之16,23.6279409,120.5127511
聖安壇,九天玄女,雲林縣,雲林縣元長鄉後湖村七鄰路三四號,23.68861,120.3161787
古安宮,九天玄女,雲林縣,雲林縣元長鄉安務山內村路7號,23.672436,120.3114389
賜福宮,天上聖母,雲林縣,雲林縣二崙鄉田尾村九二號,23.7556422,120.4157662
福德廟,福德正神,雲林縣,雲林縣土庫鎮成功路越港里二九號,23.6765974,120.3935572
合安宮,林府千歲,雲林縣,雲林縣虎尾鎮三合里八鄰吳厝三號,23.6987831,120.404379
順安府,,雲林縣,雲林縣臺西鄉復興和豐村路2號,23.7377373,120.1977251
景陽宮,康趙溫元帥,雲林縣,雲林縣水林鄉松東路24號,23.5203478,120.2313476
烈悌宮,春姑婆旋伯公,雲林縣,雲林縣水林鄉大山125號,23.5571543,120.2204044
佑真府,五府千歲,雲林縣,雲林縣水林鄉顏厝寮43之1號,23.572815,120.255241
真武殿,玄天上帝,雲林縣,雲林縣北港鎮溝皂里四鄰一六0之二號,23.6118402,120.2913448
無極玉宸宮,無極老母娘娘,雲林縣,雲林縣土庫鎮頂寮崙內里五六之十一號,23.693101,120.345633
泰安寺,清水祖師,雲林縣,雲林縣虎尾鎮頂南穎川里116號,23.6913671,120.4208165
姚正宮,姚府千歲,雲林縣,雲林縣虎尾鎮下溪里三塊厝7鄰7之1號,23.717866,120.4736589
龍善堂,觀世音菩薩,雲林縣,雲林縣虎尾鎮新興路公安里九四號,23.7108728,120.4338301
福德宮,福德正神,雲林縣,雲林縣莿桐鄉義和村店鳥庄二五號,23.7595685,120.4874208
和興宮,天上聖母,雲林縣,雲林縣莿桐鄉興中興貴村路三五號,23.761037,120.50247
禪和宮,三山國王,雲林縣,雲林縣二崙鄉公館庄西村路一五之一號,23.7987071,120.3635919
永興宮,玄天上帝,雲林縣,雲林縣虎尾鎮廉使里1577號,23.7223914,120.4186081
廣雲宮,張李莫府千歲,雲林縣,雲林縣虎尾鎮下南延平里五五之一號,23.68228,120.41399
妙宗寺,,雲林縣,雲林縣虎尾鎮民族路東仁里60號,23.711937,120.439585
北興宮,北極玄天上帝,雲林縣,雲林縣虎尾鎮興中里一五鄰225號,23.72898,120.428706
聖德堂,關聖帝君,雲林縣,雲林縣斗南鎮小東里小東242之2號,23.691559,120.467035
進興宮,玄天上帝,雲林縣,雲林縣斗南鎮阿丹里崙仔七六號之二,23.6529119,120.4937439
龍安宮,觀音佛祖,雲林縣,雲林縣褒忠鄉龍岩路龍岩村50之1號,23.7209501,120.3211525
參天府,池府千歲,雲林縣,雲林縣褒忠鄉新湖村復興路25之11號,23.7072519,120.285603
顯靈宮,,雲林縣,雲林縣臺西鄉三和富琦村18鄰28-10號,23.7225873,120.2132516
無極慈濟宮,無極濟公活佛,雲林縣,雲林縣元長鄉元西路長南村三九九之九號,23.6533459,120.2991119
朝奉宮,保生二大帝,雲林縣,雲林縣元長鄉新吉村三鄰新庄一六號,23.6204127,120.3608422
慈濟宮,明明上帝,雲林縣,雲林縣斗南鎮西歧里大同路一0二巷二一號,23.6803164,120.475353
報恩寺,釋迦牟尼佛,雲林縣,雲林縣西螺鎮新興路中興里一六0巷四號,23.799888,120.4519262
溫?宮,溫府千歲,雲林縣,雲林縣斗南鎮將軍里七五號,23.6488651,120.525031
復興宮,天上聖母,雲林縣,雲林縣北港鎮府番里六0號,23.5935155,120.3199406
安龍宮,池府千歲,雲林縣,雲林縣口湖鄉成龍村89號,23.5554042,120.1663553
三安宮,張府千歲,雲林縣,雲林縣四湖鄉海清路崙北村三五號,23.6533457,120.1551185
順天宮,耿府千歲,雲林縣,雲林縣北港鎮番溝里九鄰20號,23.6193721,120.278324
南安府,五府千歲,雲林縣,雲林縣元長鄉潭東村四鄰瓦?路43號,23.6411181,120.292102
仙天宮,玄天上帝,雲林縣,雲林縣林內鄉重興村進興路四六之一號,23.773828,120.583742
大羅天仙府,國姓爺,雲林縣,雲林縣林內鄉中興林茂村路一九之一號,23.748552,120.610779
天性宮,玄天上帝,雲林縣,雲林縣古坑鄉荷苞村荷苞33號,23.6474419,120.6056064
桂林蟾蜍嶺明德宮,土地公,雲林縣,雲林縣古坑鄉苦苓腳段1號之167,23.60669,120.60671
城隍廟,城隍尊神,雲林縣,雲林縣土庫鎮新興興新里一鄰九號,23.699449,120.37132
聖帝宮,盤古公,雲林縣,雲林縣土庫鎮新庄里一0六號,23.7385776,120.3579632
萬善堂,百姓公,雲林縣,雲林縣虎尾鎮惠來里公墓內,23.7250117,120.4842295
天乙福德宮,福德正神,雲林縣,雲林縣虎尾鎮三合里1鄰(安慶段187號)40-12號,23.693072,120.403377
興國宮,關聖帝君,雲林縣,雲林縣二崙鄉中山路崙西村一六0號,23.7701918,120.4130409
保安府元,張李莫府千歲,雲林縣,雲林縣元長鄉三房長鄉合和村四鄰四八號,23.66495,120.303816
保勝宮,保生大帝,雲林縣,雲林縣元長鄉明鹿鹿北村路二一之一號,23.646258,120.3790959
福安宮,三山國王,雲林縣,雲林縣土庫鎮埤腳里九鄰一一五號,23.671526,120.347566
三慈濟普道寺,濟公活佛,雲林縣,雲林縣二崙鄉田寮安定村一三0號,23.772795,120.387022
順天宮,李府千歲,雲林縣,雲林縣口湖鄉崇文路二段160號,23.572236,120.1758099
西天寺,彌勒佛祖,雲林縣,雲林縣四湖鄉箔東村二三鄰箔子寮一六七號,23.630597,120.1509637
參天府,三府千歲,雲林縣,雲林縣四湖鄉中洋北路羊調村100號,23.6432891,120.1984415
五間厝福德宮,福德正神,雲林縣,雲林縣斗南鎮明昌路明昌里三五八號,23.6739621,120.4630047
濟天宮,濟公活佛,雲林縣,雲林縣斗南鎮埤寮路田頭里21號,23.6942968,120.492707
福慧宮,福德正神,雲林縣,雲林縣斗南鎮新崙西路新崙里三一之一號,23.6780592,120.4319212
義雲宮,義民爺,雲林縣,雲林縣土庫鎮新興興新里四0號,23.7071369,120.4358017
文武聖廟感修堂,孔夫子、關聖帝君,雲林縣,雲林縣斗南鎮大成路明昌里43號,23.67517,120.4746146
國興宮,關聖帝君,雲林縣,雲林縣二崙鄉中華路崙東村一五0號,23.7685879,120.4198033
興濟宮,明明上帝,雲林縣,雲林縣土庫鎮溪埔溪邊里寮五0號,23.6824686,120.414927
救世堂,關聖帝君,雲林縣,雲林縣虎尾鎮新生路新興里21號,23.7094215,120.4410589
晉天宮,李府千歲,雲林縣,雲林縣虎尾鎮惠來里一五二號,23.69547,120.4358966
勸醒堂,三恩主觀世音菩薩天上聖母,雲林縣,雲林縣斗南鎮中天里永安街一八七號,23.6769467,120.4770732
龍虎堂,關聖帝君、釋迦牟尼佛,雲林縣,雲林縣斗南鎮舊社里長榮路二二號,23.6696905,120.4847058
圓明禪寺,釋迦牟尼佛,雲林縣,雲林縣林內鄉中正路林中村三二九巷八號,23.7565595,120.6138902
奉天宮,順天聖母陳靖姑,雲林縣,雲林縣林內鄉建國巷林南村二三號,23.7596152,120.6188632
慶安宮,,雲林縣,雲林縣土庫鎮新庄里八鄰二四八號,23.741307,120.376675
福安宮,,雲林縣,雲林縣虎尾鎮新生五路中山里13號,23.706619,120.436217
天台宮,天上聖母,雲林縣,雲林縣口湖鄉台興路86號,23.5593229,120.1403138
代安府,五府千歲,雲林縣,雲林縣口湖鄉代安街40之1號,23.5842905,120.1850687
保安宮,康府元帥,雲林縣,雲林縣口湖鄉青蚶村56號,23.5982244,120.161817
慈安堂,,雲林縣,雲林縣臺西鄉五榔村8鄰86號,23.6879009,120.224649
老賽公廟,老賽公佛,雲林縣,雲林縣麥寮鄉中興路麥津村158號,23.7546073,120.2519177
鎮北宮,五府千歲,雲林縣,雲林縣麥寮鄉中正路麥津村3鄰九0號,23.7483316,120.2553858
鎮東宮,北極玄天上帝,雲林縣,雲林縣麥寮鄉中山麥豐村6鄰路43號,23.7494908,120.2603816
贊天宮感化堂,關聖帝君,雲林縣,雲林縣斗南鎮四維路石龜里四六巷五二號,23.6399049,120.4838242
泉和府,五府千歲,雲林縣,雲林縣臺西鄉泉州村舊20之5號,23.6753712,120.2040929
鎮海宮,豐都大帝,雲林縣,雲林縣口湖鄉蚶寮路124號,23.599279,120.162517
鎮安府,,雲林縣,雲林縣臺西鄉中山路海口村12鄰299巷65號,23.7007298,120.1938037
悟性堂,南海觀音佛祖,雲林縣,雲林縣斗南鎮西伯里一四0號,23.6834967,120.4483005
新興宮,陳聖王,雲林縣,雲林縣斗南鎮光聖路新光里62號,23.6897334,120.4847242
奉天宮,天上聖母,雲林縣,雲林縣斗南鎮新厝埤麻里10之1號,23.6795658,120.4497507
開基南天門太子宮,哪吒三太子,雲林縣,雲林縣斗南鎮舊社里新生路三號,23.6696039,120.4820519
伽藍爺廟,伽藍爺,雲林縣,雲林縣西螺鎮遠東街光華里二巷一二號,23.8005119,120.4575813
慈和宮,觀音佛祖,雲林縣,雲林縣西螺鎮大和九隆里5鄰6-3,23.7483232,120.4316181
財團法人臺灣省雲林縣西螺福興宮,天上聖母,雲林縣,雲林縣西螺鎮福興里19鄰延平路180號,23.801559,120.4605216
崙背奉天宮,天上聖母,雲林縣,雲林縣崙背鄉中山路東明村二八0號,23.7623534,120.3472575
聚保宮,蕭太傅,雲林縣,雲林縣褒忠鄉中正路埔姜村206巷8號,23.6959908,120.3111512
開山大帝廟,開山大帝,雲林縣,雲林縣大埤鄉怡然路怡然村八四號,23.6330737,120.4017271
福安宮,池、朱、康、伍府千歲,雲林縣,雲林縣麥寮鄉瓦?村2鄰瓦?38號,23.7535188,120.2684521
許厝福興宮,,雲林縣,雲林縣麥寮鄉許厝三盛村三鄰五三之五號,23.7969911,120.2235872
震安宮,伏魔大帝,雲林縣,雲林縣西螺鎮九隆里二鄰二八之一號,23.74887,120.440548
社口百姓公廟,地藏王菩薩,雲林縣,雲林縣西螺鎮福田里社西段六二六號,23.7815712,120.4255846
口店福德爺廟,福德正神,雲林縣,雲林縣西螺鎮仁和街永安里2之3號,23.800783,120.464553
福天宮,天上聖母,雲林縣,雲林縣西螺鎮社口福田里七鄰八八號,23.7882641,120.439413
天后宮,天上聖母,雲林縣,雲林縣二崙鄉大義村大義四六號,23.7862437,120.3993751
福樹宮,福德正神,雲林縣,雲林縣大埤鄉尚義村蘆竹巷二六之一六八號,23.637872,120.449655
彌勒佛院,彌勒古佛,雲林縣,雲林縣大埤鄉尚義村一鄰七之二號,23.6382735,120.4501653
利眾公廟,利眾公,雲林縣,雲林縣麥寮鄉麥豐村2鄰興化寮23-50號,23.740206,120.264563
龍雲宮,中壇元帥,雲林縣,雲林縣斗六市江厝里?子十一號,23.671612,120.52175
鳳媽宮,天上聖母,雲林縣,雲林縣斗六市萬年東路長安里二一0號,23.7315027,120.5527531
普世宮,關聖帝君,雲林縣,雲林縣斗六市梅林路梅林里三鄰九六號,23.702966,120.599987
崙背有應公廟,百姓公,雲林縣,雲林縣崙背鄉民有路西榮村,23.7661711,120.3455305
玄天宮,玄天上帝,雲林縣,雲林縣古坑鄉尖山坑荷苞村88號,23.6575411,120.5920082
大悲精舍,釋迦牟尼佛,雲林縣,雲林縣古坑鄉華南村47號之2,23.6023002,120.5739873
南北宮,觀世音菩薩,雲林縣,雲林縣古坑鄉湳仔村崙仔,23.717746,120.507499
鎮天府,林府千歲,雲林縣,雲林縣東勢鄉新吉路新坤村79-1號,23.7165777,120.2521799
慈寶寺,地藏王菩薩,雲林縣,雲林縣西螺鎮安定里堤防路三號,23.8001783,120.4387618
玉玄宮,玄天上帝,雲林縣,雲林縣斗六市鎮南路社口里一五0號,23.704851,120.539781
斗六福德宮,福德正神,雲林縣,雲林縣斗六市成功路太平里二號,23.7082968,120.5419634
行義宮,關聖帝君,雲林縣,雲林縣斗六市保長里雲林路二段六巷七三號,23.706919,120.533986
三玄宮,玄天上帝,雲林縣,雲林縣斗六市南聖路林頭里五七號,23.703033,120.555348
証法寺,千手觀音,雲林縣,雲林縣斗六市榴南路榴中里一鄰一四巷四一號,23.7193709,120.5767572
玉當山,玄天上帝,雲林縣,雲林縣斗六市檨林路湖山里50號,23.6944336,120.6247349
聖德宮,關聖帝君,雲林縣,雲林縣斗六市南仁路榴中里一六鄰二0號,23.7212443,120.5843182
無極開基黃帝玉寶殿,軒轅黃帝,雲林縣,雲林縣斗六市江厝路江厝里二五號,23.6725857,120.5275933
福德宮,福德正神,雲林縣,雲林縣林內鄉烏塗村二二之三號,23.7731509,120.5987784
勝淵慈惠堂,無極瑤池金母娘娘,雲林縣,雲林縣林內鄉民光路九芎村六九號,23.7412543,120.5973126
永福宮,濟公活佛,雲林縣,雲林縣麥寮鄉興華村一八鄰永吉路一00號,23.7547694,120.2925488
保赤堂,關聖帝君,雲林縣,雲林縣大埤鄉豐岡村四一號,23.671785,120.4190712
三官大帝廟,三官大帝,雲林縣,雲林縣大埤鄉後庄北鎮村一七號,23.63717,120.391355
金闕太極殿,無極太上皇母,雲林縣,雲林縣東勢鄉民權路121號,23.6749347,120.2565061
勝煌宮,李府千歲,雲林縣,雲林縣元長鄉下寮村湖內一三之一號,23.6086247,120.3257328
代聖府,五府千歲,雲林縣,雲林縣元長鄉內寮村四鄰五四號,23.613629,120.347613
萬善寺,地藏王菩薩,雲林縣,雲林縣西螺鎮大新里二七七之五號,23.7954288,120.4825903
眾善寺,大眾爺,雲林縣,雲林縣西螺鎮興農西路正興里一0九號,23.7939124,120.4629958
龍目井福德宮,福德正神,雲林縣,雲林縣斗六市中堅西路鎮南里1號,23.7015903,120.5336752
福龍宮,玄天上帝,雲林縣,雲林縣斗六市虎溪路虎溪里一九鄰六七之一號,23.7214304,120.5231659
廣玄宮,玄天上帝,雲林縣,雲林縣斗六市林森路湖山里檨仔坑三四之八號,23.7001518,120.6149337
鎮安宮,吳府三王,雲林縣,雲林縣二崙鄉洲子庄西村一一鄰五一號,23.7710606,120.4129378
行興宮,玄天上帝,雲林縣,雲林縣虎尾鎮光復平和里1鄰路1號,23.7060298,120.4529104
天后宮,天上聖母,雲林縣,雲林縣虎尾鎮北平路德興里18號,23.7125216,120.4298075
靈隱寺,濟公禪師,雲林縣,雲林縣土庫鎮溪心石廟里路一0二號,23.6820621,120.3899062
順安宮,張李莫府千歲,雲林縣,雲林縣崙背鄉忠孝北街西榮村二九號,23.76307,120.351657
公業福德宮,福德正神,雲林縣,雲林縣斗六市龍潭北路龍潭里六鄰三六之一號,23.691649,120.526285
永安宮,太子元帥,雲林縣,雲林縣東勢鄉永安路四美村17鄰32-1號,23.715472,120.241185
鎮玄宮,玄天上帝,雲林縣,雲林縣東勢鄉安南路安南村2之2號,23.7017694,120.2525064
長山宮,三山國王,雲林縣,雲林縣西螺鎮七座里六0號,23.7500174,120.4446934
福德爺宮,福德正神,雲林縣,雲林縣斗六市建興路保庄里七鄰一一六號,23.7098276,120.5266398
靈慧寺,阿彌陀佛,雲林縣,雲林縣斗六市長林路長平里四五號,23.7029141,120.5046096
元帥殿,中壇元帥,雲林縣,雲林縣西螺鎮振興里120-2號,23.7873111,120.4726762
奉天宮,天上聖母北極玄天上帝,雲林縣,雲林縣西螺鎮振興里一三九號,23.7887466,120.4711471
仙姑堂,三仙姑,雲林縣,雲林縣崙背鄉枋南村一鄰七號,23.777565,120.354661
賜安宮,三山國王,雲林縣,雲林縣東勢鄉四安路東南村路25號,23.6743521,120.2543888
華藏庵,釋迦牟尼佛,雲林縣,雲林縣西螺鎮興農西路正興里一0八號,23.7939124,120.4629958
聖濟寺,觀音佛祖,雲林縣,雲林縣西螺鎮三源公館里九二號,23.7534044,120.4562029
永興宮,福德正神,雲林縣,雲林縣西螺鎮大橋路永安里八號,23.8031852,120.4637912
天后宮,天上聖母,雲林縣,雲林縣斗南鎮光天路石龜里五0號,23.639481,120.48347
北安宮,玄天上帝,雲林縣,雲林縣斗南鎮阿丹里14號,23.6526727,120.5075972
順天宮,李府千歲,雲林縣,雲林縣口湖鄉瑞興街26-3號,23.54456,120.189488
鎮天宮,玉皇上帝,雲林縣,雲林縣二崙鄉華北路大華村一五之一二號,23.8007458,120.4210659
安泰寺,清水祖師,雲林縣,雲林縣虎尾鎮中南延平里19號,23.6864749,120.413785
城隍廟,城隍,雲林縣,雲林縣虎尾鎮東屯里三一之一號,23.7018639,120.3916742
帥天宮,中壇太子元帥,雲林縣,雲林縣虎尾鎮興中里路133號,23.7213592,120.4369398
順安宮,天上聖母,雲林縣,雲林縣土庫鎮馬光路東平里六二號,23.705568,120.35759
三濟宮,保生大帝,雲林縣,雲林縣大埤鄉興安村五0號,23.627154,120.393797
無極天鳳宮,媽祖,雲林縣,雲林縣褒忠鄉太湖路埔姜村9之1號,23.7065025,120.3088421
馬鳴山鎮安宮,五年千歲,雲林縣,雲林縣褒忠鄉馬鳴村鎮安路31號,23.6996743,120.2782537
泰安殿,池府王爺,雲林縣,雲林縣大埤鄉頂埤三結村一0號,23.6665703,120.4487455
龍安宮,中壇太子元帥,雲林縣,雲林縣虎尾鎮北溪里29號,23.709607,120.400384
新翰宮,金府千歲,雲林縣,雲林縣虎尾鎮新吉里竹圍仔145號,23.7058566,120.4180088
正真堂,觀世音菩薩,雲林縣,雲林縣臺西鄉溪頂村尚德段1790號,23.6820668,120.190171
忠義祠,忠義公,雲林縣,雲林縣斗南鎮明昌里延平路七0二∣一號,23.6703644,120.4753896
天聖宮,張天師,雲林縣,雲林縣西螺鎮埤頭里五鄰一之一號,23.7741309,120.4750016
鎮南宮,玄天上帝,雲林縣,雲林縣西螺鎮修文路中和里二八巷二七號,23.8025336,120.4626556
受天宮,玄天上帝,雲林縣,雲林縣西螺鎮大園街大園里二鄰一三號,23.7974608,120.4676408
羅厝八卦宮,八卦祖師,雲林縣,雲林縣崙背鄉羅厝村七二之一號,23.757334,120.366708
泰安宮,溫府千歲,雲林縣,雲林縣崙背鄉豐榮村五鄰九三號,23.799532,120.306015
朱子宮,玄天上帝中壇元帥,雲林縣,雲林縣斗六市南揚街鎮南里一六二之九號,23.699858,120.533699
金熙宮,玄天上帝,雲林縣,雲林縣斗六市江厝路江厝里三鄰六二號,23.6726896,120.5275654
聚福宮,,雲林縣,雲林縣臺西鄉海豐路五港村285號,23.7132921,120.1968946
天興宮,溫府王爺,雲林縣,雲林縣斗六市府前街社口里四二號,23.705769,120.5415675
保清宮,清水祖師,雲林縣,雲林縣斗六市建興路保庄里七鄰八七之一號,23.70956,120.5258462
寶安府,福德正神,雲林縣,雲林縣斗六市貞寮路溪洲里一三六巷六號,23.739471,120.564803
昭安宮,玄天上帝,雲林縣,雲林縣斗六市劉厝路嘉東里七鄰五號,23.677195,120.555859
天龍宮,趙聖定遠帝君,雲林縣,雲林縣斗六市永興路久安里八二號,23.687426,120.517763
護安宮,百姓公,雲林縣,雲林縣斗六市十三南路十三里五鄰三五號,23.7449996,120.5681914
順儀宮,玄天上帝,雲林縣,雲林縣斗六市新昌街鎮南里一七鄰四0號,23.6964913,120.5394037
聖帝宮,關聖帝君,雲林縣,雲林縣麥寮鄉山寮興華村一五號之十,23.770285,120.292282
道濟禪院,濟公活佛,雲林縣,雲林縣麥寮鄉施厝村一六鄰二四0之三號,23.7949618,120.2797795
復興寺,三聖佛,雲林縣,雲林縣水林鄉山寮路15之1號,23.596009,120.252455
聖昌宮,王母娘娘,雲林縣,雲林縣水林鄉萬興1鄰2之11號,23.5839902,120.2329169
青風龍壇,九天玄女,雲林縣,雲林縣東勢鄉仁愛路龍潭村41號,23.6907151,120.2412276
福德祠,福德正神,雲林縣,雲林縣西螺鎮西螺段877－22號,23.7783445,120.4223831
鎮安宮,,雲林縣,雲林縣麥寮鄉中山三盛村路5鄰30號,23.75002,120.2607109
聚寶宮,蕭府太傅,雲林縣,雲林縣麥寮鄉光大寮麥豐村五鄰36號,23.7438699,120.2566129
財團法人台灣省雲林縣斗六市真一寺,觀世音菩薩,雲林縣,雲林縣斗六市永樂街鎮東里一鄰二號,23.7125116,120.5473112
李天宮,李府千歲,雲林縣,雲林縣斗六市保竹保庄里三八號,23.714366,120.515014
永福寺,觀世音菩薩,雲林縣,雲林縣斗六市城頂街中和里一五六號,23.7065599,120.5394135
開天宮,關聖帝君,雲林縣,雲林縣古坑鄉大埔朝陽村路66號,23.64151,120.59169
朱子宮,真武大帝,雲林縣,雲林縣古坑鄉朝陽路古坑村1號之260,23.6459292,120.5663902
南天宮,中壇元帥,雲林縣,雲林縣古坑鄉華南村10號之1,23.591502,120.5797128
金花堂,王母娘娘金府千歲關聖帝君,雲林縣,雲林縣東勢鄉嘉隆路嘉隆村7號,23.666336,120.258764
聖安宮,天上聖母三令聖母,雲林縣,雲林縣東勢鄉嘉芳南路嘉隆村86之1號,23.670396,120.2552079
文衡壇,關聖帝君,雲林縣,雲林縣東勢鄉程南路程海村43之1號,23.670058,120.231633
啟安廟,鄭新登公,雲林縣,雲林縣崙背鄉羅厝村二鄰一二一之二號,23.7628933,120.369492
報恩堂,祖先公,雲林縣,雲林縣水林鄉宏仁路38號,23.6052503,120.2393195
水林福德廟,福德正神,雲林縣,雲林縣水林鄉東陽街67巷1號,23.5701202,120.2458872
振王宮,五府千歲,雲林縣,雲林縣斗六市田部榴北里九鄰一之一0號,23.733991,120.5768354
玉興宮,玄天上帝,雲林縣,雲林縣斗六市板橋路三光里七鄰四0號,23.65549,120.524389
慈惠宮,瑤池金母,雲林縣,雲林縣斗六市保庄里后庄路九號,23.699749,120.5251885
福天宮,觀音佛祖,雲林縣,雲林縣斗六市內林路梅林里五八號,23.702051,120.5977321
震天府,五府千歲,雲林縣,雲林縣斗六市成功里自強街三九號,23.7047513,120.5498653
船元府,陳元帥,雲林縣,雲林縣東勢鄉嘉芳南路嘉隆村24之3號,23.6705266,120.2548111
南天宮,王孫大二、三使,雲林縣,雲林縣東勢鄉昌南路昌南村120號,23.6950819,120.2609914
武聖宮,關聖帝君,雲林縣,雲林縣虎尾鎮青埔平和里六鄰路二七之一號,23.70378,120.4445317
懿德堂,五恩主,雲林縣,雲林縣西螺鎮興農西路廣福里六號,23.7944934,120.4644841
福心宮,天上聖母,雲林縣,雲林縣西螺鎮安定里十一鄰一八二號,23.8009584,120.4359544
崙前順天宮,天上聖母,雲林縣,雲林縣崙背鄉崙前村路四鄰七0號,23.7568079,120.3538444
金山宮,瑤池金母,雲林縣,雲林縣西螺鎮公正路正興里九七巷三之一號,23.7948422,120.4628162
雲林宮,文殊菩薩,雲林縣,雲林縣斗六市雲林路２段515號,23.6990178,120.5262781
林頭北天宮,北極玄天上帝,雲林縣,雲林縣斗六市林頭里路三0號,23.7147917,120.5292625
慈龍宮,天上王母娘娘,雲林縣,雲林縣古坑鄉尖山坑荷苞村86號,23.6575411,120.5920082
福德宮,福德正神,雲林縣,雲林縣虎尾鎮惠來里1鄰(惠聖宮旁),23.7292843,120.4876036
薛玉聖媽廟,薛玉聖媽,雲林縣,雲林縣虎尾鎮新吉里七鄰,23.7057174,120.4170377
二城福德廟,福德正神,雲林縣,雲林縣斗六市榮譽路重光里九五八巷七八之一號,23.7027261,120.573292
雲林太子宮,中壇元帥,雲林縣,雲林縣斗六市大學路二段三0三巷一六之一號,23.7005202,120.5490895
保安宮,金府王爺,雲林縣,雲林縣斗六市內環路忠孝里六二八號,23.7095079,120.5495104
進天宮,池府千歲,雲林縣,雲林縣斗六市石林路長平里十鄰二八號,23.6964564,120.5085005
玄太宮,玄天上帝,雲林縣,雲林縣斗六市興和路八德里1之1號,23.7182251,120.558159
雲林縣城隍廟,城隍尊神,雲林縣,雲林縣斗六市中華路三一八號,23.7085467,120.5497018
中和宮,北極玄天上帝,雲林縣,雲林縣斗六市崙仔路虎溪里二四鄰二三之四號,23.7178457,120.5095966
玄關宮(已廢止),玄天上帝,雲林縣,雲林縣斗六市中山路鎮南里五鄰二一四號,23.704248,120.539059
保安宮,元帥爺公,雲林縣,雲林縣大埤鄉妮姑庵南和村,23.643452,120.414806
慈善堂,地藏王菩薩,雲林縣,雲林縣大埤鄉豐岡村五七號,23.671785,120.4190712
大悲寺,阿彌陀佛,雲林縣,雲林縣大埤鄉妮姑庵南和村六八之二0號,23.6455592,120.4172745
福天宮,天上聖母,雲林縣,雲林縣莿桐鄉振興興桐村路五五號,23.7706958,120.5036647
雲山寺,西方三聖,雲林縣,雲林縣莿桐鄉湖內五華村五號,23.779683,120.561998
鎮華宮,五府千歲,雲林縣,雲林縣莿桐鄉湖內五華村五七之一號,23.779683,120.561998
萬應宮,萬應公,雲林縣,雲林縣虎尾鎮廉使里一鄰一六四九號,23.725685,120.414655
鎮安宮,三品夫人,雲林縣,雲林縣臺西鄉光華村6鄰49之10號,23.691044,120.20687
四湖參天宮,關聖帝君,雲林縣,雲林縣四湖鄉湖西村八鄰關聖路87號,23.639044,120.226791
水尾順天宮,三太子,雲林縣,雲林縣口湖鄉謝厝村34號,23.584518,120.200653
天瑤宮,天上聖母,雲林縣,雲林縣莿桐鄉中山路莿桐村一三0號,23.7540293,120.4983405
金湖萬善爺廟,萬善爺,雲林縣,雲林縣口湖鄉民主路5號,23.5743058,120.1523176
萬天宮,玄天上帝,雲林縣,雲林縣大埤鄉民權路南和村一一一巷一四號,23.6443743,120.4294424
三仙宮,天上聖母,雲林縣,雲林縣大埤鄉後庄北鎮村一之三號,23.6357888,120.3918803
三山國王廟,三山國王,雲林縣,雲林縣大埤鄉新街大德村二0號,23.6268574,120.4216745
慈天必生宮,王母娘娘,雲林縣,雲林縣大埤鄉中埤三結村路二一號,23.6665703,120.4487455
清天宮,清水祖師,雲林縣,雲林縣斗六市後庄保庄里二十鄰一九之二號,23.700125,120.52509
一旨山千佛寺,千手千眼觀世音菩薩,雲林縣,雲林縣古坑鄉興園棋盤村34號之6,23.6883833,120.6096107
受山宮,玄天上帝,雲林縣,雲林縣古坑鄉光山永光村路17號之1,23.614283,120.573394
廣濟宮,天上聖母,雲林縣,雲林縣古坑鄉宮前路東和村32號,23.681946,120.569917
五興宮,關聖帝君,雲林縣,雲林縣莿桐鄉湖內五華村路八一之一號,23.779683,120.561998
宏和寺,觀世音菩薩,雲林縣,雲林縣莿桐鄉中山路莿桐村四號,23.7538971,120.49784
乾元宮,玄天上帝,雲林縣,雲林縣莿桐鄉興南興貴村路四八號,23.7626027,120.5183293
順天宮,五府千歲,雲林縣,雲林縣北港鎮水埔里五鄰四二之一號,23.5498446,120.2815587
聖德宮,關聖帝君,雲林縣,雲林縣北港鎮中正路仁安里一三五號,23.5700491,120.3004951
海天宮,關聖帝君,雲林縣,雲林縣口湖鄉四維街99號,23.581631,120.170893
下崙福安宮,丁府八千歲,雲林縣,雲林縣口湖鄉福安路22號,23.6181794,120.1619047
聚東宮,五府三千歲,雲林縣,雲林縣臺西鄉萬興和豐村33鄰46之26號,23.742263,120.1970859
仁善堂福德堂,,雲林縣,雲林縣臺西鄉瓦厝路五港村五港段240-1號,23.716808,120.201715
玉樹宮,法主公,雲林縣,雲林縣莿桐鄉興北興貴村三九號,23.7734638,120.5209226
鳳儀宮,中壇元帥,雲林縣,雲林縣莿桐鄉南安路三六號,23.7552213,120.4952649
無極補天宮,女媧娘娘,雲林縣,雲林縣莿桐鄉溪美大美村路五五號,23.7365872,120.5072244
任聖宮,任聖公,雲林縣,雲林縣大埤鄉聯美村四鄰,23.6548218,120.3983097
萬安堂,萬聖爺,雲林縣,雲林縣褒忠鄉中勝路埔姜村44號,23.6972092,120.3095834
振興宮,玄天上帝,雲林縣,雲林縣莿桐鄉三和義和村一九號,23.774131,120.480717
文武聖廟感德堂,關聖帝君,雲林縣,雲林縣莿桐鄉饒平西路饒平村三0號,23.7798129,120.5189342
泰安宮,天上聖母,雲林縣,雲林縣大埤鄉嘉興村路三0號,23.6493367,120.4538497
北安宮,鄭府元帥,雲林縣,雲林縣口湖鄉台子村60之6號,23.5577243,120.1502699
福安宮,福德正神,雲林縣,雲林縣臺西鄉民權路海北村71號,23.7049758,120.2003713
持明寺,大梵天王,雲林縣,雲林縣古坑鄉草嶺村路21號之9,23.5837402,120.6934891
北安宮,西嶽大帝,雲林縣,雲林縣褒忠鄉北興有才村9鄰26號,23.7394737,120.3031324
賜福宮,三官大帝三山國王,雲林縣,雲林縣大埤鄉中山路北和村八八號,23.6459715,120.4289923
北極殿,玄天上帝,雲林縣,雲林縣大埤鄉大德村路五四號,23.6334489,120.4256672
福神宮,福德正神,雲林縣,雲林縣古坑鄉草嶺村石璧,23.606907,120.709377
福德宮,福德正神,雲林縣,雲林縣古坑鄉草嶺村122號之2,23.5837402,120.6934891
廣福宮,保生大帝,雲林縣,雲林縣大埤鄉西鎮村三三號,23.6222401,120.3840025
碧雲寺,觀世音,雲林縣,雲林縣水林鄉後湖3號,23.5934627,120.2169035
元天宮,北極玄天上帝,雲林縣,雲林縣水林鄉頂尖山3鄰30號,23.5148512,120.2285935
國聖宮,開台國聖鄭成功,雲林縣,雲林縣古坑鄉尖山坑荷苞村27號之3,23.6485964,120.6154197
保安宮,池府千歲,雲林縣,雲林縣水林鄉溪墘4鄰33號,23.5377836,120.2659615
苦苓腳福德宮,福德正神,雲林縣,雲林縣古坑鄉桂林村67號之10,23.613065,120.606642
德安宮,五府千歲,雲林縣,雲林縣北港鎮劉厝里一一六之一,23.5914537,120.2929019
巡天宮,蕭府千歲,雲林縣,雲林縣北港鎮華勝路新街里五七一號,23.587913,120.300268
鎮安宮,玄天上帝,雲林縣,雲林縣古坑鄉華南村華興25號,23.5956256,120.5654225
議天宮,玄天上帝觀音佛祖,雲林縣,雲林縣古坑鄉新厝棋盤村80號,23.6949716,120.6058309
彌陀寺,西方三聖,雲林縣,雲林縣古坑鄉荷苞厝荷苞村76號之1,23.6474419,120.6056064
受天宮,北極玄天上帝,雲林縣,雲林縣古坑鄉草嶺村石璧81號之5,23.609776,120.709942
興天府,李府千歲,雲林縣,雲林縣北港鎮府番里一八三號,23.592184,120.3212122
聖安宮,五文昌夫子五年千歲,雲林縣,雲林縣北港鎮民治路華勝里三三號,23.5739747,120.3009403
順安宮,五府千歲,雲林縣,雲林縣口湖鄉文安街38巷24號,23.5875516,120.1830016
鰲峰宮,保生大帝,雲林縣,雲林縣元長鄉元中路長北村七0號,23.6514629,120.313835
鏜元府,五王代天巡守,雲林縣,雲林縣水林鄉尖山腳27號,23.535447,120.223103
南天宮,關聖帝君,雲林縣,雲林縣古坑鄉興園棋盤村32號,23.6889761,120.608337
慶福佛堂,佛祖,雲林縣,雲林縣大埤鄉中山路北和村二巷三號,23.6455115,120.4322125
玉天宮,北極玄天上帝,雲林縣,雲林縣古坑鄉棋山棋盤村89號,23.6848827,120.6047687
武德宮,武德英侯,雲林縣,雲林縣元長鄉庄內路卓運村四八之三號,23.641383,120.348781
承德府,池府千歲,雲林縣,雲林縣元長鄉合和村一六鄰六七之一二號,23.666235,120.293603
鎮安宮,楊府七千歲,雲林縣,雲林縣北港鎮西勢里館前街22號,23.5669803,120.3018301
福天宮,金府千歲,雲林縣,雲林縣口湖鄉蚶寮路22號,23.6184518,120.1620439
武四宮,池府千歲,雲林縣,雲林縣北港鎮過溝樹腳里51號,23.580154,120.273843
奉天宮,玄天上帝,雲林縣,雲林縣口湖鄉水井村21之2號,23.5328843,120.1856426
新興宮,七府千歲,雲林縣,雲林縣口湖鄉民主路9號,23.5744555,120.1533565
代天宮,五府千歲,雲林縣,雲林縣北港鎮復興街公館里二0號,23.5712971,120.3054181
受天宮,,雲林縣,雲林縣北港鎮新厝里六一之一號,23.585088,120.316542
忠義公廟,忠義公,雲林縣,雲林縣林內鄉大同路九芎村一鄰六之一號,23.742254,120.604605
永昌宮,關聖帝君,雲林縣,雲林縣林內鄉永昌烏麻村一00號,23.7553009,120.592455
極明殿,玄天上帝,雲林縣,雲林縣元長鄉新吉村1鄰路13號,23.623548,120.366059
武聖宮,明明上帝,雲林縣,雲林縣元長鄉進化街長南村四之一號,23.6491858,120.3148116
聖德宮,明明上帝,雲林縣,雲林縣莿桐鄉甘厝村二二號,23.7595685,120.4874208
錫福宮,天上聖母,雲林縣,雲林縣莿桐鄉埔子村六三號,23.7568891,120.5027796
聖賢公廟,福德正神,雲林縣,雲林縣口湖鄉頂湖村107號,23.6004372,120.1798043
泉安府,李府千歲,雲林縣,雲林縣臺西鄉泉州村72-1號,23.677905,120.21545
進興宮,蕭府王爺,雲林縣,雲林縣林內鄉重興村路一五九號,23.7628053,120.5797128
保安宮,保生大帝,雲林縣,雲林縣元長鄉潭內潭西村路三一之五號,23.6406874,120.2892359
金母宮,關聖帝君,雲林縣,雲林縣元長鄉潭東村瓦?路三之一號,23.6497208,120.2959022
玉安宮,九天玄女,雲林縣,雲林縣元長鄉中湖後湖村路18號,23.6845071,120.3323279
昭烈宮,開漳聖王,雲林縣,雲林縣北港鎮公民路大同里一0四號,23.5693778,120.3044269
福天宮,五府千歲,雲林縣,雲林縣口湖鄉四維街45號,23.5798427,120.1698551
慈聖宮,,雲林縣,雲林縣臺西鄉崙豐路永豐村79巷1號,23.7218299,120.2100861
武安洲廟,包府千歲,雲林縣,雲林縣元長鄉竹圍鹿北村一0鄰路二一號,23.6494358,120.381142
順天宮,陳元帥,雲林縣,雲林縣元長鄉順天街長南村一四號,23.6560744,120.312084
福德宮,土地公,雲林縣,雲林縣口湖鄉文安街59之5號,23.5867803,120.1825616
南天宮,五府千歲,雲林縣,雲林縣元長鄉子茂村二鄰二一號,23.658671,120.334222
香枲宮,九天玄女,雲林縣,雲林縣林內鄉烏塗村一鄰鹽讚路一號,23.7689515,120.5941172
鎮安宮,隨駕王爺李勇,雲林縣,雲林縣林內鄉忠庄烏塗村9之6號,23.76249,120.600353
大眾爺廟,大眾爺,雲林縣,雲林縣褒忠鄉新湖村2之3號,23.711438,120.29083
聚安宮,蕭府太傅,雲林縣,雲林縣臺西鄉五榔村3鄰24-2號,23.6866485,120.225308
廣天宮,天上聖母,雲林縣,雲林縣斗南鎮文昌路西岐里297號,23.6793465,120.4740502
儀天宮,天上聖母,雲林縣,雲林縣元長鄉元東路長北村五鄰三段二之三號,23.6554232,120.3186526
官埔代天府,五府千歲,雲林縣,雲林縣土庫鎮崙內里路一一五之四號,23.691598,120.346542
新興宮,吳府三王爺,雲林縣,雲林縣虎尾鎮新生路新興里141號,23.7077034,120.4370459
關天宮,孚佑帝君、關聖帝君、司命真君,雲林縣,雲林縣斗南鎮西伯里一五八之一號,23.6848761,120.4328824
小南天福德廟,福德正神,雲林縣,雲林縣斗南鎮福德街中天里九九號,23.6764203,120.4802307
東和村福德宮,土地公,雲林縣,雲林縣古坑鄉東和村東陽段1764號,23.685277,120.568922
建德寺,地母至尊,雲林縣,雲林縣古坑鄉小坑荷苞村5號,23.6539663,120.5913987
龍寶殿,項羽元帥,雲林縣,雲林縣水林鄉埔尾59號,23.5707465,120.2419054
北極殿,玄天上帝,雲林縣,雲林縣古坑鄉大埔朝陽村45號之2,23.6392605,120.5947962
會水宮,朱府千歲,雲林縣,雲林縣口湖鄉烏麻園街30-1號,23.5860363,120.1841482
順寮宮,菁埔夫人,雲林縣,雲林縣口湖鄉下崙村25號,23.6318281,120.1645411
南天府,池府千歲,雲林縣,雲林縣臺西鄉文化路海南村287之7,23.6990287,120.1978815
保安宮,保安夫人,雲林縣,雲林縣四湖鄉中華路林東村一四鄰81號,23.675532,120.179258
興南宮,池府千歲,雲林縣,雲林縣虎尾鎮興南里路42之1號,23.71964,120.442761
良德堂,觀世音菩薩,雲林縣,雲林縣土庫鎮大同路越港里三鄰一0五巷二號,23.676081,120.3941845
福德宮,福德正神,雲林縣,雲林縣虎尾鎮復興路立仁里128號,23.707724,120.427936
有求堂,大眾公,雲林縣,雲林縣土庫鎮大荖里162-2號,23.6876,120.373712
溪心佛祖宮,觀音佛祖,雲林縣,雲林縣土庫鎮溪心石廟里48-1號,23.6805437,120.3916028
北極殿,玄天上帝,雲林縣,雲林縣虎尾鎮下溪里大庄77號,23.7127268,120.4592993
定安宮,三山國王,雲林縣,雲林縣二崙鄉定安村2鄰15號,23.79081,120.4272679
華山祥雲寺,釋迦牟尼佛,雲林縣,雲林縣古坑鄉華山村路6號,23.598134,120.5858475
青天府,池府王爺,雲林縣,雲林縣林內鄉坪頂村二號之六,23.7537737,120.638455
靜法寺,南海普陀山觀世音菩薩,雲林縣,雲林縣土庫鎮崙內里一鄰二十四之七號,23.6860969,120.3571082
福成宮,關聖帝君,雲林縣,雲林縣二崙鄉竹圍路楊賢村三六號,23.8133918,120.412737
大安宮,蘇府千歲,雲林縣,雲林縣二崙鄉大華路大華村六一號,23.8019613,120.4176654
三寶堂,中壇太子元帥,雲林縣,雲林縣虎尾鎮復興路立仁里106號,23.7086102,120.4294756
旭安府,,雲林縣,雲林縣臺西鄉三姓蚊港村85之2號,23.7516319,120.22837
崙豐慈惠宮,西王金母,雲林縣,雲林縣臺西鄉海產路和豐村134號,23.7239844,120.2089693
晉安宮,朱府千歲,雲林縣,雲林縣四湖鄉東庄路施湖村2鄰2-2號,23.6519144,120.2154948
妙一慈堂,明明上帝,雲林縣,雲林縣斗南鎮德業路小東里29號,23.695016,120.475739
鎮安宮,朱府千歲,雲林縣,雲林縣北港鎮溝皂里13鄰217號,23.6028862,120.2945293
武聖宮,關聖帝君,雲林縣,雲林縣林內鄉瑞農林中村二七之一號,23.7622265,120.6156256
竹林寺,三寶佛,雲林縣,雲林縣斗南鎮光華路五號,23.6857361,120.4849864
真武殿,玄天上帝,雲林縣,雲林縣斗南鎮二重溝明昌里九二號,23.667448,120.463479
天福宮,關聖帝君,雲林縣,雲林縣斗南鎮埤麻里84號,23.685521,120.449034
祥雲寺,釋迦牟尼佛,雲林縣,雲林縣斗南鎮文昌路北銘里一一七號,23.6790044,120.4815902
海清宮,包青天,雲林縣,雲林縣四湖鄉海清路崙北村九三號,23.6569253,120.1534614
晉安宮,伍年千歲,雲林縣,雲林縣四湖鄉南溪尾溪尾村一00號,23.6468208,120.188635
泰安宮,天上聖母太子觀音佛祖,雲林縣,雲林縣四湖鄉東庄路施湖村四七號,23.6531257,120.2132228
荷苞聖堂,純陽帝君,雲林縣,雲林縣古坑鄉小坑荷苞村23號,23.6613854,120.5726224
萬善堂,地藏王菩薩,雲林縣,雲林縣古坑鄉新厝棋盤村20號之3,23.6908515,120.6038521
通天宮,五府千歲,雲林縣,雲林縣古坑鄉新興崁腳村路42號,23.6023947,120.5445966
鎮興宮,吳府千歲,雲林縣,雲林縣元長鄉下寮村八鄰七－五號,23.6183784,120.3343914
玄武宮,玄天上帝,雲林縣,雲林縣土庫鎮大荖里九一號,23.68513,120.369426
聖安宮,張吳媽祖,雲林縣,雲林縣土庫鎮崙內里五鄰路三0之六號,23.693101,120.345633
大安宮,玄天上帝,雲林縣,雲林縣虎尾鎮東屯里74之1號,23.7122394,120.4356576
祝天宮,天上聖母,雲林縣,雲林縣二崙鄉新店路來惠村二二鄰七號,23.7652892,120.3844296
代安宮,,雲林縣,雲林縣臺西鄉萬興和豐村路八八號,23.7204448,120.2091745
巡天府,五府千歲,雲林縣,雲林縣四湖鄉新庄村砂崙腳36-1號,23.6470881,120.2558464
法華寺,佛祖,雲林縣,雲林縣四湖鄉中山西路施湖村一六0號,23.6376161,120.2253544
泉和宮,,雲林縣,雲林縣臺西鄉牛厝村11號,23.665489,120.220083
玄德宮慈惠堂,,雲林縣,雲林縣臺西鄉溪頂村1鄰21號,23.68333,120.1906803
進寶府,,雲林縣,雲林縣臺西鄉崙豐路富琦村291巷1號,23.7220768,120.2121082
興安宮,鄭成功,雲林縣,雲林縣土庫鎮新興興新里三鄰七七號,23.671115,120.37436
惠聖宮,天上聖母,雲林縣,雲林縣虎尾鎮惠來里1鄰17-33號,23.7292843,120.4876036
富安宮,五年千歲,雲林縣,雲林縣口湖鄉口湖路159巷23號,23.5853337,120.1866059
五條港安西府,張巡,雲林縣,雲林縣臺西鄉五港村中央路76號,23.7178652,120.2001321
北天宮,玄天上帝,雲林縣,雲林縣口湖鄉過港村96號,23.5708088,120.1918301
聖天宮,玄天上帝,雲林縣,雲林縣北港鎮北辰路新街里二二鄰一三號,23.5797109,120.3030007
彌陀寺,釋迦牟尼佛,雲林縣,雲林縣北港鎮中秋路光民里九四號,23.5674595,120.3059101
靖興宮,玄天上帝,雲林縣,雲林縣斗南鎮厝興路靖興里二號,23.6440692,120.4795224
照瑤宮,七娘媽,雲林縣,雲林縣斗南鎮明昌里紅?二一號,23.6696119,120.4637522
元帥爺廟,中壇元帥,雲林縣,雲林縣斗南鎮四維路石溪里98號,23.6398357,120.4826241
濟陽府,丁府八千歲,雲林縣,雲林縣臺西鄉山寮村1-11號,23.6985716,120.2074594
順天府,五府千歲,雲林縣,雲林縣四湖鄉中華路林東村14鄰81號,23.675532,120.179258
安南宮,莫府千歲,雲林縣,雲林縣臺西鄉成功牛厝村20鄰路178號,23.6675289,120.2097662
代天宮,五府千歲,雲林縣,雲林縣虎尾鎮三合里吳厝庄90號,23.703772,120.405108
清山南天府,康府千歲,雲林縣,雲林縣元長鄉南山山內村路八之一號,23.676079,120.305991
安海宮,,雲林縣,雲林縣臺西鄉民權路臺西村6巷2號,23.700192,120.200424
護國宮,騎虎尊王,雲林縣,雲林縣斗南鎮港墘新崙里三八號,23.6730101,120.438584
劉仙姑廟,劉仙姑,雲林縣,雲林縣斗南鎮莒光街廟南昌里二八鄰五一號,23.6900416,120.465857
德昭堂,,雲林縣,雲林縣斗南鎮成功東明里10鄰32號,23.6734455,120.5046815
福德宮,福德正神,雲林縣,雲林縣土庫鎮崙內里五五號,23.693101,120.345633
土庫順天宮,天上聖母,雲林縣,雲林縣土庫鎮順天里中正路一0九號,23.6764551,120.3907122
聖濟堂,濟公活佛,雲林縣,雲林縣二崙鄉田尾村犁份路一八之一二號,23.756849,120.422257
保生宮,保生大帝,雲林縣,雲林縣土庫鎮秀潭奮起里四鄰五五號,23.6546138,120.3496283
泰安宮,武德侯,雲林縣,雲林縣斗南鎮大東里二三0號,23.683681,120.460402
溫勝宮,玄天上帝,雲林縣,雲林縣斗南鎮溫厝將軍里8之1號,23.6737376,120.4811252
寶光紹興濟德講堂,彌勒祖師,雲林縣,雲林縣斗南鎮成功東明里路三九之六號,23.679983,120.477649
福安宮,福德正神,雲林縣,雲林縣臺西鄉光華村6鄰54號,23.6891218,120.2137665
明福宮,,雲林縣,雲林縣臺西鄉復興和豐村路108號,23.7220236,120.2111765
萬壽堂,萬壽公,雲林縣,雲林縣虎尾鎮光復建國里路七五七號,23.714553,120.427774
紫雲寺,觀音佛祖,雲林縣,雲林縣虎尾鎮堀頭里四鄰五四號,23.718897,120.449738
福安宮,土地公,雲林縣,雲林縣褒忠鄉中勝村13鄰366號,23.7020653,120.3099605
合安宮,七府千歲,雲林縣,雲林縣褒忠鄉下田田洋村路23之6號,23.7170824,120.3096325
新興宮,五府千歲,雲林縣,雲林縣四湖鄉中興三姓村一八之一號,23.6343989,120.170896
三寶宮,明明上帝,雲林縣,雲林縣虎尾鎮三合里八鄰吳厝七六號,23.70216,120.4027
慈仁寺,觀音佛祖,雲林縣,雲林縣二崙鄉大庄路大庄村四鄰二八之一號,23.8043448,120.3764193
清雲宮,清雲伯,雲林縣,雲林縣虎尾鎮興中里220號,23.727426,120.436323
順天宮,關聖帝君,雲林縣,雲林縣虎尾鎮復興路立仁里108號,23.707362,120.4279307
南雲宮,南雲千歲,雲林縣,雲林縣臺西鄉富琦村普令厝段五五號,23.7124826,120.2226657
有應公廟,有應公婆土地公,雲林縣,雲林縣臺西鄉五榔村五塊寮段175號,23.690469,120.225346
福興堂,福德正神,雲林縣,雲林縣四湖鄉中山東路四湖村五鄰二一之二三號,23.6371863,120.2307125
包青天廟,包青天,雲林縣,雲林縣虎尾鎮大屯東屯里,23.7022542,120.3883456
龍善宮,伯聖尊王,雲林縣,雲林縣虎尾鎮東仁路東仁里一三八號,23.7131428,120.4386824
慈和宮,觀音大士,雲林縣,雲林縣二崙鄉中和路來惠村三一之四號,23.7637306,120.3976094
鎮湖府,池府千歲,雲林縣,雲林縣土庫鎮綺湖奮起里九六號,23.665418,120.357064
隴西宮,輔信王公（李伯瑤）,雲林縣,雲林縣斗南鎮後庄路田頭里156之1號,23.6975074,120.487747
聖安宮,天上聖母,雲林縣,雲林縣口湖鄉聖安路106號,23.588743,120.1792819
萬善爺廟,萬善同歸公,雲林縣,雲林縣口湖鄉下寮路70之6號,23.6166362,120.2061587
進安府,五府千歲,雲林縣,雲林縣臺西鄉崙豐路永豐村65號,23.7220832,120.2111135
福聖宮,福德正神,雲林縣,雲林縣四湖鄉新厝街崙南村二六之三號,23.6425,120.163537
保安宮,五府千歲天上聖母,雲林縣,雲林縣水林鄉塭底30號,23.5159407,120.2020537
乾元宮順化堂,關聖帝君,雲林縣,雲林縣斗南鎮新興街明昌里三三0號,23.6750305,120.4812864
三大姓公廟,,雲林縣,雲林縣臺西鄉中山路海口村10鄰299巷2號,23.6983556,120.1940266
鎮東宮,國姓爺,雲林縣,雲林縣古坑鄉桂林村43號,23.5996743,120.5998236
義天宮,關聖帝君,雲林縣,雲林縣元長鄉後建鹿南村路37號,23.6417682,120.3719866
珠聖堂,關聖帝君,雲林縣,雲林縣土庫鎮埤腳里一四鄰扶朝二一號,23.676548,120.362598
仙姑娘廟,仙姑娘,雲林縣,雲林縣土庫鎮新庄里十鄰西一0號,23.7327271,120.3716507
北極殿,玄天上帝,雲林縣,雲林縣虎尾鎮下溪里大庄77號,23.7127268,120.4592993
城南府,城隍尊神,雲林縣,雲林縣土庫鎮頂寮崙內里路十之六號,23.693101,120.345633
虎尾寺,觀世音菩薩,雲林縣,雲林縣虎尾鎮民生路新興里48號,23.7082976,120.4366391
馬光南天宮,關聖帝君,雲林縣,雲林縣土庫鎮新光東平里三六號,23.7183332,120.3615702
持法媽祖宮,關夫子菩薩、湄洲天上聖母,雲林縣,雲林縣虎尾鎮頂溪里一五鄰西園四六號,23.7387495,120.460963
賜安宮,福德正神,雲林縣,雲林縣斗南鎮石龜溪段1207-2地號,23.6392114,120.4833078
北安宮,玄天上帝,雲林縣,雲林縣四湖鄉頂飛沙飛沙村四0號,23.653955,120.179636
鎮保宮,五年千歲,雲林縣,雲林縣四湖鄉湖寮村下寮57之1號,23.620513,120.217497
三國廟,五府千歲,雲林縣,雲林縣口湖鄉蚵寮村蚵寮28號,23.5723362,120.1764169
順安宮,五夫人媽,雲林縣,雲林縣臺西鄉中央路五港村7號,23.7171759,120.199397
飛王宮,李府千歲,雲林縣,雲林縣四湖鄉大同路飛沙村47巷6號,23.641986,120.179718
三安宮,九天玄女,雲林縣,雲林縣東勢鄉德政街復興村8鄰10之6號,23.68103,120.2768759
埤頭埧萬靈宮,地藏王,雲林縣,雲林縣西螺鎮埤頭里十鄰七九之一號,23.77475,120.4714734
財團法人西螺廣福宮,,雲林縣,雲林縣西螺鎮新街路廣福里十一鄰三二號,23.7969828,120.4646236
靈山寺,濟公聖佛,雲林縣,雲林縣西螺鎮民生路廣福里十一號,23.7971705,120.4655893
德修堂,文衡聖帝,雲林縣,雲林縣崙背鄉豐榮村一鄰九號,23.7924095,120.3119254
長安里福興宮,天上聖母溫府千歲,雲林縣,雲林縣斗六市長安路長安里二鄰三號,23.7345344,120.5335765
慈玄宮,北極玄天上帝,雲林縣,雲林縣斗六市明德路鎮南里五七五號,23.699503,120.533401
信義宮,關聖帝君,雲林縣,雲林縣斗六市育英北街八德里七八九號,23.7158042,120.5511142
聖母宮,天上聖母,雲林縣,雲林縣莿桐鄉后埔四合村3鄰一之七號,23.777328,120.5289
潮洋宮,天上聖母,雲林縣,雲林縣褒忠鄉潮厝村30號,23.715874,120.335183
通天宮,天上聖母五年千歲五府千歲,雲林縣,雲林縣水林鄉下寮11號,23.6185481,120.2101092
大興宮,李府千歲,雲林縣,雲林縣水林鄉大溝路66之1號,23.5656996,120.2104833
順天宮,吳府三千歲,雲林縣,雲林縣口湖鄉謝厝村36之1號,23.5831082,120.2046877
鎮安宮,蕭府千歲,雲林縣,雲林縣口湖鄉頂湖村109之2號,23.602081,120.1766
義民廟,義民公,雲林縣,雲林縣北港鎮旌義街二0號,23.5677199,120.3028599
巡安宮,陳靖姑,雲林縣,雲林縣北港鎮文星路一四四號,23.5756979,120.29668
國姓廟,國姓公（鄭成功）,雲林縣,雲林縣林內鄉頂庄路林北村19號,23.7644907,120.6229715
無極聖殿,玄天上帝,雲林縣,雲林縣元長鄉好收內寮村一一鄰五之六號,23.617637,120.351505
慈聖堂,無極瑤池西王金母大天尊,雲林縣,雲林縣虎尾鎮下南延平里45之1號,23.6821718,120.4053424
延平震天宮,鄭成功,雲林縣,雲林縣虎尾鎮下南延平里四鄰一二號,23.6822003,120.4065613
萬聖堂,聖公聖媽,雲林縣,雲林縣虎尾鎮大屯東屯里路35之1號,23.7022542,120.3883456
韓唐寺,觀世音菩薩,雲林縣,雲林縣虎尾鎮自由路尾鎮德興里48號,23.7104874,120.4309952
明天宮,吳府千歲,雲林縣,雲林縣虎尾鎮尾園埒內里九號,23.737954,120.450953
昭安府,,雲林縣,雲林縣臺西鄉溪頂村（路）200之20號,23.6797259,120.1817909
普天宮,溫府千歲,雲林縣,雲林縣四湖鄉箔東村一一八之一號,23.630098,120.1528539
財團法人台灣浸信宣道會神學院,財團法人台灣浸信宣道會神學院,雲林縣,雲林縣西螺鎮文昌路107號,23.7982901,120.4635211
財團法人斗六基督教浸信會,財團法人斗六基督教浸信會,雲林縣,雲林縣斗六市文化路42號,23.7109692,120.5462939
財團法人虎尾基督徒聚會處,財團法人虎尾基督徒聚會處,雲林縣,雲林縣虎尾鎮文化路西安里70號,23.701326,120.430616
財團法人虎尾基督教浸信宣道會,財團法人虎尾基督教浸信宣道會,雲林縣,雲林縣虎尾鎮中山里林森路一段517號,23.7089298,120.4330141
財團法人基督長老教會,財團法人基督長老教會,雲林縣,雲林縣虎尾鎮公安路197號,23.7101291,120.4324443
財團法人天理教斗六教會,財團法人天理教斗六教會,雲林縣,雲林縣斗南鎮雲林路３段619巷1弄19號及21號,23.687439,120.5005501
財團法人新約教會,財團法人新約教會,雲林縣,雲林縣虎尾鎮林森路１段虎尾教會虎尾396巷34號,23.7119255,120.4347825
財團法人中國天主教雲林遣使會,財團法人中國天主教雲林遣使會,雲林縣,雲林縣四湖鄉四湖村東湖160之2號,23.6368492,120.234515
財團法人西螺基督四方教會,財團法人西螺基督四方教會,雲林縣,雲林縣西螺鎮修文路137號,23.801633,120.458428
財團法人虎尾天主堂,財團法人虎尾天主堂,雲林縣,雲林縣虎尾鎮北平路77號,23.710898,120.428727
財團法人斗南基督教浸信會,財團法人斗南基督教浸信會,雲林縣,雲林縣斗南鎮中山路163號,23.678167,120.4778185
財團法人天主教中華道明修女會,財團法人天主教中華道明修女會,雲林縣,雲林縣斗南鎮永安街58號,23.6788521,120.482555
財團法人虎尾教會聚會所,財團法人虎尾教會聚會所,雲林縣,雲林縣虎尾鎮德興路德興里80號,23.711285,120.430706
財團法人基督教虎尾浸信會,財團法人基督教虎尾浸信會,雲林縣,雲林縣虎尾鎮水源路2號,23.7121731,120.433429
